{
"type": "FeatureCollection",
"name": "LFRR_LFRZ_GEO",
"crs": { "type": "name", "properties": { "name": "urn:ogc:def:crs:OGC:1.3:CRS84" } },
"features": [
{"type":"Feature","properties":{"fid":1,"fir":"LFRR","icao":"LFRZ","type":"orange","author":"rmaure06"},"geometry":{"type":"LineString","coordinates":[[-2.157155073459262,47.313052537837066],[-2.157114339248382,47.312959220162504]]}},
{"type":"Feature","properties":{"fid":2,"fir":"LFRR","icao":"LFRZ","type":"gate_centerline","author":"rmaure06"},"geometry":{"type":"LineString","coordinates":[[-2.160667173415158,47.313598404557027],[-2.160897325361975,47.314126084294138]]}},
{"type":"Feature","properties":{"fid":3,"fir":"LFRR","icao":"LFRZ","type":"gate_centerline","author":"rmaure06"},"geometry":{"type":"LineString","coordinates":[[-2.160230379666628,47.313620216542468],[-2.161183159231409,47.313428102976701]]}},
{"type":"Feature","properties":{"fid":4,"fir":"LFRR","icao":"LFRZ","type":"gate_centerline","author":"rmaure06"},"geometry":{"type":"LineString","coordinates":[[-2.159954444805659,47.313368539240237],[-2.16072656746595,47.313214176568522]]}},
{"type":"Feature","properties":{"fid":5,"fir":"LFRR","icao":"LFRZ","type":"gate_centerline","author":"rmaure06"},"geometry":{"type":"LineString","coordinates":[[-2.162884551311377,47.313875248319398],[-2.162507770301668,47.313608471628349],[-2.160959194164884,47.310053417838823]]}}
]
}
