{
"type": "FeatureCollection",
"name": "LFRR_LFRZ_FREETEXT",
"crs": { "type": "name", "properties": { "name": "urn:ogc:def:crs:OGC:1.3:CRS84" } },
"features": [
{ "type": "Feature", "properties": { "fid": 1, "fir": "LFRR", "icao": "LFRZ", "type": "cati", "freetext": "A", "author": "DedpewlControl" }, "geometry": { "type": "Point", "coordinates": [ -2.166270947509446, 47.309921216063877 ] } },
{ "type": "Feature", "properties": { "fid": 2, "fir": "LFRR", "icao": "LFRZ", "type": "cati", "freetext": "H1", "author": "DedpewlControl" }, "geometry": { "type": "Point", "coordinates": [ -2.160950135337799, 47.311213254205811 ] } },
{ "type": "Feature", "properties": { "fid": 3, "fir": "LFRR", "icao": "LFRZ", "type": "taxiway", "freetext": "H", "author": "DedpewlControl" }, "geometry": { "type": "Point", "coordinates": [ -2.163004216315691, 47.313931465086654 ] } },
{ "type": "Feature", "properties": { "fid": 4, "fir": "LFRR", "icao": "LFRZ", "type": "cati", "freetext": "B", "author": "DedpewlControl" }, "geometry": { "type": "Point", "coordinates": [ -2.156817225418428, 47.312035443850597 ] } },
{ "type": "Feature", "properties": { "fid": 5, "fir": "LFRR", "icao": "LFRZ", "type": "ihp", "freetext": "C", "author": "DedpewlControl" }, "geometry": { "type": "Point", "coordinates": [ -2.156990461163551, 47.312723388622381 ] } },
{ "type": "Feature", "properties": { "fid": 6, "fir": "LFRR", "icao": "LFRZ", "type": "apron", "freetext": "ACB", "author": null }, "geometry": { "type": "Point", "coordinates": [ -2.15595104669281, 47.314652942025461 ] } },
{ "type": "Feature", "properties": { "fid": 7, "fir": "LFRR", "icao": "LFRZ", "type": "apron", "freetext": "PRKG 2", "author": "DedpewlControl" }, "geometry": { "type": "Point", "coordinates": [ -2.158376347124538, 47.313713342212516 ] } },
{ "type": "Feature", "properties": { "fid": 8, "fir": "LFRR", "icao": "LFRZ", "type": "apron", "freetext": "PRKG 1", "author": "DedpewlControl" }, "geometry": { "type": "Point", "coordinates": [ -2.160578915883963, 47.313428103249414 ] } },
{ "type": "Feature", "properties": { "fid": 9, "fir": "LFRR", "icao": "LFRZ", "type": "gate_secondary", "freetext": "1", "author": "DedpewlControl" }, "geometry": { "type": "Point", "coordinates": [ -2.160875891447032, 47.314099251300256 ] } }
]
}
