{
"type": "FeatureCollection",
"name": "LFRR_LFRZ_REGIONS",
"crs": { "type": "name", "properties": { "name": "urn:ogc:def:crs:OGC:1.3:CRS84" } },
"features": [
{ "type": "Feature", "properties": { "fid": 1, "fir": "LFRR", "icao": "LFRZ", "type": "grass", "author": "rmaure06" }, "geometry": { "type": "Polygon", "coordinates": [ [ [ -2.12825427227778, 47.314971075920369 ], [ -2.129582939191373, 47.318013402261244 ], [ -2.134545642100421, 47.317036595983716 ], [ -2.134792017422147, 47.317612242784385 ], [ -2.139088187094741, 47.3166249897629 ], [ -2.139717324077005, 47.316759209535022 ], [ -2.151076986232292, 47.314490849579869 ], [ -2.153344959059964, 47.315974764707029 ], [ -2.160833009016701, 47.314514711861321 ], [ -2.161583133880171, 47.314675781979254 ], [ -2.162265065574233, 47.314550505263291 ], [ -2.163800511775703, 47.315412522371147 ], [ -2.164086483131277, 47.315379712288838 ], [ -2.164407650961384, 47.315185834113812 ], [ -2.17076941373309, 47.309756956410922 ], [ -2.172414848917473, 47.309416887269357 ], [ -2.172401650239523, 47.308560738601834 ], [ -2.171746115901359, 47.30694982895001 ], [ -2.17164492603708, 47.306776802400933 ], [ -2.171526137935533, 47.306657473416394 ], [ -2.171354555122189, 47.30653516092768 ], [ -2.17118737186816, 47.306442680565375 ], [ -2.17109938068183, 47.306362133021224 ], [ -2.171042186410714, 47.306293518349761 ], [ -2.170967393902334, 47.306180154784393 ], [ -2.170721018580608, 47.306126456168556 ], [ -2.170527437970681, 47.30610259009957 ], [ -2.170285462208271, 47.30608170728037 ], [ -2.170003890412012, 47.306084690540764 ], [ -2.16963872698874, 47.306105573358785 ], [ -2.169286762243418, 47.306132422684129 ], [ -2.168987592209894, 47.30615032222677 ], [ -2.168670823939104, 47.306156288739643 ], [ -2.168288062278565, 47.306132422684129 ], [ -2.167887702380761, 47.30606380771448 ], [ -2.167553335872705, 47.305971326527519 ], [ -2.167293761873029, 47.305854978997985 ], [ -2.16702538875472, 47.305708798405554 ], [ -2.166792212110944, 47.305550684248445 ], [ -2.16660743061965, 47.305386603019322 ], [ -2.166361055297924, 47.305136005250091 ], [ -2.165498741671884, 47.304178352830519 ], [ -2.165331558417855, 47.303957583145355 ], [ -2.165120379570662, 47.303650294075865 ], [ -2.154266666736776, 47.307048274837229 ], [ -2.153096383958579, 47.307516636092373 ], [ -2.151340959791283, 47.307814953199653 ], [ -2.14978351579323, 47.307862683780577 ], [ -2.149088385421217, 47.307970077430063 ], [ -2.143082986954151, 47.309032069549261 ], [ -2.146497044983781, 47.311305138267556 ], [ -2.137873908723377, 47.31285924052959 ], [ -2.137601136045752, 47.313088921632549 ], [ -2.12825427227778, 47.314971075920369 ] ] ] } },
{ "type": "Feature", "properties": { "fid": 2, "fir": "LFRR", "icao": "LFRZ", "type": "taxiway", "author": "rmaure06" }, "geometry": { "type": "Polygon", "coordinates": [ [ [ -2.157493193550538, 47.311933794542874 ], [ -2.157198973021245, 47.311994198844573 ], [ -2.157537189143703, 47.312771991277522 ], [ -2.15751629123695, 47.312803684398546 ], [ -2.157481644707333, 47.312837614660005 ], [ -2.157441498728569, 47.312867816302969 ], [ -2.157391453741343, 47.312892425036324 ], [ -2.157330409855827, 47.312912932305366 ], [ -2.157253967512702, 47.312931575270319 ], [ -2.155771865967945, 47.313225014672241 ], [ -2.155679475222298, 47.31324626752626 ], [ -2.155616231557123, 47.313264164659849 ], [ -2.155554087781777, 47.313286536068325 ], [ -2.155510092188611, 47.313314500315585 ], [ -2.155473245879336, 47.313347311680182 ], [ -2.155440799129376, 47.31338869871329 ], [ -2.155422650947196, 47.313424120022184 ], [ -2.155418251387879, 47.31345655846318 ], [ -2.155424850726853, 47.31349570827927 ], [ -2.155802112938246, 47.314370419463749 ], [ -2.155941798946546, 47.314345065720133 ], [ -2.155872505887311, 47.314209348415062 ], [ -2.15558213497242, 47.313527028111245 ], [ -2.155570036184299, 47.313491606871331 ], [ -2.155565636624983, 47.313460659873861 ], [ -2.15557498568853, 47.31342896714682 ], [ -2.155599183264771, 47.313400630104205 ], [ -2.155631630014731, 47.313372293046385 ], [ -2.155677275442639, 47.313350294530508 ], [ -2.155736669493413, 47.313335380277231 ], [ -2.157382104677796, 47.313007265640472 ], [ -2.157462396635323, 47.312992351290397 ], [ -2.157532789584387, 47.312990859855155 ], [ -2.15759328352499, 47.31299757131341 ], [ -2.157647178126617, 47.313016214248485 ], [ -2.157680174821492, 47.313040077195822 ], [ -2.157703272507903, 47.313069160148302 ], [ -2.157713171516365, 47.313087803058139 ], [ -2.158282914447856, 47.312969234039464 ], [ -2.158132229541265, 47.312887950722015 ], [ -2.158022240558352, 47.312820090241978 ], [ -2.157927650033046, 47.312749246790709 ], [ -2.15785945686364, 47.312673183189951 ], [ -2.157779164906113, 47.312544918830902 ], [ -2.157668076033371, 47.312339844354291 ], [ -2.157493193550538, 47.311933794542874 ] ] ] } },
{ "type": "Feature", "properties": { "fid": 3, "fir": "LFRR", "icao": "LFRZ", "type": "taxiway", "author": "rmaure06" }, "geometry": { "type": "Polygon", "coordinates": [ [ [ -2.165965094959437, 47.310165633098499 ], [ -2.165759690533846, 47.310311055610072 ], [ -2.166652251130187, 47.310913436136808 ], [ -2.167018514443289, 47.310604696000276 ], [ -2.166911275184948, 47.310576730319127 ], [ -2.166823833943532, 47.310563306786904 ], [ -2.166681948155574, 47.310546527366846 ], [ -2.166587907575183, 47.310533103826963 ], [ -2.166500466333767, 47.31051408713963 ], [ -2.166449321456712, 47.310492833186849 ], [ -2.165965094959437, 47.310165633098499 ] ] ] } },
{ "type": "Feature", "properties": { "fid": 4, "fir": "LFRR", "icao": "LFRZ", "type": "cati", "author": "rmaure06" }, "geometry": { "type": "Polygon", "coordinates": [ [ [ -2.165965094959437, 47.310165633098499 ], [ -2.165944059566455, 47.310151300569672 ], [ -2.165734324324661, 47.310294765512033 ], [ -2.165759690533846, 47.310311055610072 ], [ -2.165965094959437, 47.310165633098499 ] ] ] } },
{ "type": "Feature", "properties": { "fid": 5, "fir": "LFRR", "icao": "LFRZ", "type": "cati", "author": "rmaure06" }, "geometry": { "type": "Polygon", "coordinates": [ [ [ -2.157493193550538, 47.311933794542874 ], [ -2.157483913230105, 47.31191228481525 ], [ -2.157189005269669, 47.311972129842559 ], [ -2.157198973021245, 47.311994198844573 ], [ -2.157493193550538, 47.311933794542874 ] ] ] } },
{ "type": "Feature", "properties": { "fid": 6, "fir": "LFRR", "icao": "LFRZ", "type": "runway", "author": "rmaure06" }, "geometry": { "type": "Polygon", "coordinates": [ [ [ -2.165944059566455, 47.310151300569672 ], [ -2.164946115775858, 47.309482072018589 ], [ -2.164703590068535, 47.30931539279981 ], [ -2.164552630189487, 47.309219188447706 ], [ -2.164537781676793, 47.309182832106259 ], [ -2.164513034155637, 47.309145357081981 ], [ -2.164476737791276, 47.309109560019046 ], [ -2.164434667005312, 47.309076559580184 ], [ -2.16436207427659, 47.308902607773739 ], [ -2.133803835153784, 47.315069996225169 ], [ -2.133978717636617, 47.315461201496817 ], [ -2.134005790800704, 47.31545563871402 ], [ -2.134036874311332, 47.315498951673604 ], [ -2.134080182473354, 47.315538099976592 ], [ -2.134118541131146, 47.31556522414094 ], [ -2.134170510925572, 47.315592068661019 ], [ -2.134256302332244, 47.315627022442769 ], [ -2.13433260718914, 47.315649392850958 ], [ -2.134415511385012, 47.315660857681479 ], [ -2.134477792646586, 47.315663653981225 ], [ -2.134998315508224, 47.31529985414101 ], [ -2.135084018711821, 47.315239954876098 ], [ -2.156408220977214, 47.310937975866395 ], [ -2.156479163871193, 47.310951958613259 ], [ -2.156543094967511, 47.310973771690961 ], [ -2.156593414927194, 47.31099782199697 ], [ -2.156642497510819, 47.311028304345832 ], [ -2.156696942057361, 47.311074447317559 ], [ -2.156739837760698, 47.311131217100233 ], [ -2.156997211980715, 47.311533357952619 ], [ -2.157035983097193, 47.3116211685523 ], [ -2.157189005269669, 47.311972129842559 ], [ -2.157483913230105, 47.31191228481525 ], [ -2.157483913230105, 47.31191228481525 ], [ -2.157296817387251, 47.311486966801816 ], [ -2.157282518819469, 47.311435759375897 ], [ -2.157188294924079, 47.311053069299057 ], [ -2.157181145640187, 47.31100981607289 ], [ -2.157178395915614, 47.310977003256994 ], [ -2.157177296025785, 47.310948664899605 ], [ -2.157182245530017, 47.31092330951433 ], [ -2.157189944758823, 47.310894598254542 ], [ -2.157210292720668, 47.310854327889885 ], [ -2.157239989746063, 47.310817040487827 ], [ -2.157280135724837, 47.310776024315182 ], [ -2.157307632970573, 47.310755516216908 ], [ -2.163390573672287, 47.309527253057887 ], [ -2.16350276243489, 47.309520541158932 ], [ -2.163610001693261, 47.309527253057887 ], [ -2.164654347086314, 47.309683863791591 ], [ -2.164752099794905, 47.30970595705417 ], [ -2.164840778412404, 47.309733363873399 ], [ -2.164924919984355, 47.309769160513852 ], [ -2.165018960564773, 47.309823414750817 ], [ -2.165734324324661, 47.310294765512026 ], [ -2.165944059566455, 47.310151300569672 ] ] ] } },
{ "type": "Feature", "properties": { "fid": 7, "fir": "LFRR", "icao": "LFRZ", "type": "apron", "author": "rmaure06" }, "geometry": { "type": "Polygon", "coordinates": [ [ [ -2.155802112938246, 47.314370419463749 ], [ -2.155807417614727, 47.314387877342995 ], [ -2.155806180238669, 47.314409689002552 ], [ -2.155787000909768, 47.314439260565109 ], [ -2.155759159948459, 47.314455829021988 ], [ -2.155709046218104, 47.314471348837628 ], [ -2.155206052850463, 47.314570339987036 ], [ -2.155277885232304, 47.314738108464979 ], [ -2.154621961639462, 47.314867196218984 ], [ -2.154701238530375, 47.315052350686656 ], [ -2.155840020034637, 47.314828235613817 ], [ -2.155926416272171, 47.315030017727914 ], [ -2.156293156841858, 47.314957842331886 ], [ -2.156264636874614, 47.314891232720768 ], [ -2.156244830051287, 47.314866892871294 ], [ -2.156212658273775, 47.314853889880141 ], [ -2.156171206175827, 47.314847178657651 ], [ -2.156137797022256, 47.3148350145647 ], [ -2.156108674057688, 47.31476946285791 ], [ -2.156595737320151, 47.314670000601858 ], [ -2.156540459677311, 47.314545577926367 ], [ -2.156468677374474, 47.314384005003227 ], [ -2.156357431272579, 47.314399202628898 ], [ -2.156247524033142, 47.314414217344726 ], [ -2.156177393056117, 47.314417658645169 ], [ -2.156122948509557, 47.31441807809999 ], [ -2.156074072155261, 47.314413464096582 ], [ -2.156022102360818, 47.314400041538867 ], [ -2.155971369942434, 47.314373615868405 ], [ -2.155941798946546, 47.314345065720133 ], [ -2.155802112938246, 47.314370419463749 ] ] ] } },
{ "type": "Feature", "properties": { "fid": 8, "fir": "LFRR", "icao": "LFRZ", "type": "apron", "author": "rmaure06" }, "geometry": { "type": "Polygon", "coordinates": [ [ [ -2.157713171516365, 47.313087803058139 ], [ -2.15772720656896, 47.313121946753959 ], [ -2.157734630825308, 47.313161795925957 ], [ -2.157729681321076, 47.313204161854806 ], [ -2.157712976744291, 47.313251141855005 ], [ -2.157687610535099, 47.313286796291578 ], [ -2.157642446308976, 47.313318675532109 ], [ -2.157569441121544, 47.31335181314337 ], [ -2.157463026780543, 47.313378658787869 ], [ -2.157192660111835, 47.31343990036337 ], [ -2.157620173539929, 47.3143987831739 ], [ -2.157751167356773, 47.314446365548079 ], [ -2.158694202737697, 47.314253104706921 ], [ -2.158690016843921, 47.314243716097515 ], [ -2.158692205222315, 47.314231944687592 ], [ -2.158708755127093, 47.314217683170924 ], [ -2.158868376638596, 47.314185175287662 ], [ -2.158891268095672, 47.314186014201034 ], [ -2.158911684800631, 47.31419524224718 ], [ -2.158927770689387, 47.314216215073394 ], [ -2.158990258180324, 47.314203841106938 ], [ -2.158973113459783, 47.314164044578582 ], [ -2.158978193763757, 47.314150150642661 ], [ -2.158995362356564, 47.314137566932217 ], [ -2.159358996245657, 47.314065420267788 ], [ -2.159389844521796, 47.31413688819574 ], [ -2.159521092509275, 47.314229008493307 ], [ -2.16026351814417, 47.314094782294248 ], [ -2.160402576622029, 47.314448326267708 ], [ -2.161621475472312, 47.314227957241698 ], [ -2.16126543976533, 47.313322759209967 ], [ -2.16168309782689, 47.313007537516874 ], [ -2.16167969504273, 47.312685386620373 ], [ -2.161435725332226, 47.312522327969077 ], [ -2.160943146944112, 47.312550946765725 ], [ -2.160865192252449, 47.312586182205322 ], [ -2.160851581115809, 47.312880648889063 ], [ -2.160847280962595, 47.31297367912213 ], [ -2.160638752433806, 47.313125197608606 ], [ -2.159257840752902, 47.313397849220742 ], [ -2.158282914447856, 47.312969234039464 ], [ -2.157713171516365, 47.313087803058139 ] ] ] } },
{ "type": "Feature", "properties": { "fid": 9, "fir": "LFRR", "icao": "LFRZ", "type": "apron", "author": "rmaure06" }, "geometry": { "type": "Polygon", "coordinates": [ [ [ -2.166652251130187, 47.310913436136808 ], [ -2.166677909498783, 47.310930833012662 ], [ -2.166537324103044, 47.311050063014576 ], [ -2.166615278794707, 47.311127247567377 ], [ -2.166644975820102, 47.311151996938165 ], [ -2.166691377422283, 47.311182199544447 ], [ -2.166738397712494, 47.311207787850137 ], [ -2.166795935699198, 47.311230439782555 ], [ -2.166857804502105, 47.311248896905482 ], [ -2.166914105112752, 47.311261061823899 ], [ -2.166980304731863, 47.311267773501818 ], [ -2.167045885662946, 47.31126861246149 ], [ -2.167105898401767, 47.311263578703212 ], [ -2.167178284901169, 47.311247638465481 ], [ -2.167240772392105, 47.311226244980979 ], [ -2.167293360874577, 47.311202334605696 ], [ -2.167345949357049, 47.311174648894493 ], [ -2.167386164078939, 47.311142348879741 ], [ -2.167422666672655, 47.31110669299639 ], [ -2.167453601074109, 47.31106180849725 ], [ -2.167474636467098, 47.311009373286446 ], [ -2.16747958597133, 47.310958615952828 ], [ -2.167477729907243, 47.310910794949272 ], [ -2.167460406642429, 47.310865490800744 ], [ -2.167438133873382, 47.310823542480442 ], [ -2.167402249967696, 47.310778238257107 ], [ -2.16735894180566, 47.310738806771866 ], [ -2.167295835626694, 47.310696858351001 ], [ -2.167229017319554, 47.310670011344193 ], [ -2.167147350499715, 47.310643164323722 ], [ -2.167018514443289, 47.310604696000276 ], [ -2.166652251130187, 47.310913436136808 ] ] ] } },
{ "type": "Feature", "properties": { "fid": 10, "fir": "LFRR", "icao": "LFRZ", "type": "unused", "author": "rmaure06" }, "geometry": { "type": "Polygon", "coordinates": [ [ [ -2.156562388870307, 47.314594937679452 ], [ -2.156572889378709, 47.314559434191551 ], [ -2.156603205092134, 47.314539300409315 ], [ -2.157596043460521, 47.314344661551587 ], [ -2.157565351091346, 47.314275821216796 ], [ -2.156996071990599, 47.314396476171432 ], [ -2.15695461989265, 47.314402767996206 ], [ -2.156917498610905, 47.314402767996206 ], [ -2.156842018671358, 47.314391862166133 ], [ -2.156725705321891, 47.3143750839616 ], [ -2.156670023399274, 47.314373406140859 ], [ -2.156610629348482, 47.314372986685669 ], [ -2.156468677374474, 47.314384005003227 ], [ -2.156562388870307, 47.314594937679452 ] ] ] } },
{ "type": "Feature", "properties": { "fid": 11, "fir": "LFRR", "icao": "LFRZ", "type": "unused", "author": "rmaure06" }, "geometry": { "type": "Polygon", "coordinates": [ [ [ -2.161565083085348, 47.314692191126134 ], [ -2.16220851863559, 47.314564677362817 ], [ -2.162808646023797, 47.314020223688061 ], [ -2.162234503532812, 47.313724924433451 ], [ -2.16173831573349, 47.313832725630988 ], [ -2.161716042964444, 47.313784068308358 ], [ -2.161464413429569, 47.313828638946731 ], [ -2.161621475472312, 47.314227957241698 ], [ -2.160402576622029, 47.314448326267708 ], [ -2.159773295806681, 47.314562095808064 ], [ -2.159958365676871, 47.315032615025949 ], [ -2.161565083085348, 47.314692191126134 ] ] ] } },
{ "type": "Feature", "properties": { "fid": 12, "fir": "LFRR", "icao": "LFRZ", "type": "unused", "author": "rmaure06" }, "geometry": { "type": "Polygon", "coordinates": [ [ [ -2.166602941820569, 47.311115032481581 ], [ -2.166195962983004, 47.311456853703177 ], [ -2.166511358254693, 47.311629478960839 ], [ -2.166001714727535, 47.312057523662688 ], [ -2.165549655085355, 47.311810099739766 ], [ -2.164548365225261, 47.31265106731334 ], [ -2.166224508078284, 47.313568443193347 ], [ -2.168594921669495, 47.31157758307495 ], [ -2.167612868751061, 47.311040073781086 ], [ -2.167302177178998, 47.310470231431623 ], [ -2.1672574719396, 47.310481436710347 ], [ -2.167094766637394, 47.310627463652303 ], [ -2.167147350499715, 47.310643164323722 ], [ -2.167229017319554, 47.310670011344193 ], [ -2.167295835626694, 47.310696858351001 ], [ -2.16735894180566, 47.310738806771866 ], [ -2.167402249967696, 47.310778238257107 ], [ -2.167438133873382, 47.310823542480442 ], [ -2.167460406642429, 47.310865490800744 ], [ -2.167477729907243, 47.310910794949272 ], [ -2.16747958597133, 47.310958615952828 ], [ -2.167474636467098, 47.311009373286446 ], [ -2.167453601074109, 47.31106180849725 ], [ -2.167422666672655, 47.31110669299639 ], [ -2.167386164078939, 47.311142348879741 ], [ -2.167345949357049, 47.311174648894493 ], [ -2.167293360874577, 47.311202334605696 ], [ -2.167240772392105, 47.311226244980979 ], [ -2.167178284901169, 47.311247638465481 ], [ -2.167105898401767, 47.311263578703212 ], [ -2.167045885662946, 47.31126861246149 ], [ -2.166980304731863, 47.311267773501818 ], [ -2.166914105112752, 47.311261061823899 ], [ -2.166857804502105, 47.311248896905482 ], [ -2.166795935699198, 47.311230439782555 ], [ -2.166738397712494, 47.311207787850137 ], [ -2.166691377422283, 47.311182199544447 ], [ -2.166644975820102, 47.311151996938165 ], [ -2.166615278794707, 47.311127247567377 ], [ -2.166602941820569, 47.311115032481581 ] ] ] } },
{ "type": "Feature", "properties": { "fid": 13, "fir": "LFRR", "icao": "LFRZ", "type": "building", "author": "rmaure06" }, "geometry": { "type": "Polygon", "coordinates": [ [ [ -2.154719973570762, 47.315048663591128 ], [ -2.154789946482917, 47.315239049705653 ], [ -2.15501416883883, 47.31520117161979 ], [ -2.154941606065191, 47.31500504582857 ], [ -2.154719973570762, 47.315048663591128 ] ] ] } },
{ "type": "Feature", "properties": { "fid": 15, "fir": "LFRR", "icao": "LFRZ", "type": "building", "author": "rmaure06" }, "geometry": { "type": "Polygon", "coordinates": [ [ [ -2.155286752970268, 47.315069592311858 ], [ -2.155227977607505, 47.314937884952258 ], [ -2.155026788764024, 47.314979152333038 ], [ -2.155085902729152, 47.315111618348716 ], [ -2.155286752970268, 47.315069592311858 ] ] ] } },
{ "type": "Feature", "properties": { "fid": 16, "fir": "LFRR", "icao": "LFRZ", "type": "building", "author": "rmaure06" }, "geometry": { "type": "Polygon", "coordinates": [ [ [ -2.155505768532562, 47.315055750471025 ], [ -2.155644973339105, 47.31502596952847 ], [ -2.155686713552768, 47.315115647746175 ], [ -2.155952151956661, 47.315058860921681 ], [ -2.156003797925156, 47.315169821412404 ], [ -2.156240490609019, 47.315119184386504 ], [ -2.156166132345787, 47.314959426687423 ], [ -2.15593676675715, 47.315008496334833 ], [ -2.155851264618367, 47.314824795747029 ], [ -2.15544469835802, 47.31491177525789 ], [ -2.155505768532562, 47.315055750471025 ] ] ] } },
{ "type": "Feature", "properties": { "fid": 17, "fir": "LFRR", "icao": "LFRZ", "type": "building", "author": "rmaure06" }, "geometry": { "type": "Polygon", "coordinates": [ [ [ -2.15669612430051, 47.314864061575285 ], [ -2.15660827060038, 47.314669435814359 ], [ -2.156366685017112, 47.314719560608474 ], [ -2.156452947754115, 47.314910661671227 ], [ -2.15669612430051, 47.314864061575285 ] ] ] } },
{ "type": "Feature", "properties": { "fid": 18, "fir": "LFRR", "icao": "LFRZ", "type": "building", "author": "rmaure06" }, "geometry": { "type": "Polygon", "coordinates": [ [ [ -2.157825848641607, 47.314570444850609 ], [ -2.157914939717795, 47.314552827795239 ], [ -2.157859255815384, 47.314423391586011 ], [ -2.157767171279027, 47.31444160061892 ], [ -2.157825848641607, 47.314570444850609 ] ] ] } },
{ "type": "Feature", "properties": { "fid": 19, "fir": "LFRR", "icao": "LFRZ", "type": "building", "author": "rmaure06" }, "geometry": { "type": "Polygon", "coordinates": [ [ [ -2.158119106767391, 47.314486554058199 ], [ -2.158261405014079, 47.314460547885517 ], [ -2.158279562238604, 47.314506214474029 ], [ -2.158713669190667, 47.314426877854508 ], [ -2.158691745322242, 47.314371737826377 ], [ -2.158844054400045, 47.314343902031155 ], [ -2.15879877084991, 47.314230010564181 ], [ -2.158067578942809, 47.314363642334349 ], [ -2.158119106767391, 47.314486554058199 ] ] ] } },
{ "type": "Feature", "properties": { "fid": 20, "fir": "LFRR", "icao": "LFRZ", "type": "building", "author": "rmaure06" }, "geometry": { "type": "Polygon", "coordinates": [ [ [ -2.159773478557148, 47.314585545179099 ], [ -2.160458984893368, 47.314442930793511 ], [ -2.160282150687067, 47.314052232047331 ], [ -2.159603837945939, 47.314193350905441 ], [ -2.159773478557148, 47.314585545179099 ] ] ] } },
{ "type": "Feature", "properties": { "fid": 21, "fir": "LFRR", "icao": "LFRZ", "type": "building", "author": "rmaure06" }, "geometry": { "type": "Polygon", "coordinates": [ [ [ -2.162077472777438, 47.315295255750904 ], [ -2.161582522354174, 47.314187901756249 ], [ -2.161127756993243, 47.314281332206292 ], [ -2.161077533470477, 47.314168965877329 ], [ -2.160582312468763, 47.314270707869973 ], [ -2.16064546131587, 47.3144119920359 ], [ -2.160468785556974, 47.314448289511489 ], [ -2.160627243060813, 47.31480280771553 ], [ -2.159768719758687, 47.31497918707305 ], [ -2.159788430357967, 47.315023285436396 ], [ -2.159165935498256, 47.315151173445287 ], [ -2.159132550280469, 47.315076481128393 ], [ -2.156594147706237, 47.31559797895293 ], [ -2.156764841079705, 47.315979864155565 ], [ -2.156328895490545, 47.316069425094867 ], [ -2.156491783716468, 47.316433844973609 ], [ -2.162077472777438, 47.315295255750904 ] ] ] } },
{ "type": "Feature", "properties": { "fid": 22, "fir": "LFRR", "icao": "LFRZ", "type": "building", "author": "rmaure06" }, "geometry": { "type": "Polygon", "coordinates": [ [ [ -2.162296797683746, 47.314019909094668 ], [ -2.162195332846976, 47.313780817494354 ], [ -2.161765112348353, 47.313864740007254 ], [ -2.161868134650581, 47.314107501223063 ], [ -2.162296797683746, 47.314019909094668 ] ] ] } },
{ "type": "Feature", "properties": { "fid": 23, "fir": "LFRR", "icao": "LFRZ", "type": "building", "author": "rmaure06" }, "geometry": { "type": "Polygon", "coordinates": [ [ [ -2.166731553476184, 47.313150784973729 ], [ -2.167667009776151, 47.312348762003609 ], [ -2.166937619012135, 47.311957690410004 ], [ -2.165995855268938, 47.312765127064338 ], [ -2.166731553476184, 47.313150784973729 ] ] ] } },
{ "type": "Feature", "properties": { "fid": 24, "fir": "LFRR", "icao": "LFRZ", "type": "building", "author": "rmaure06" }, "geometry": { "type": "Polygon", "coordinates": [ [ [ -2.16774125233964, 47.312365540851488 ], [ -2.16846635470972, 47.311729618791816 ], [ -2.167696727290583, 47.311326209229108 ], [ -2.166985751604443, 47.311949746877758 ], [ -2.16774125233964, 47.312365540851488 ] ] ] } },
{ "type": "Feature", "properties": { "fid": 25, "fir": "LFRR", "icao": "LFRZ", "type": "building", "author": "rmaure06" }, "geometry": { "type": "Polygon", "coordinates": [ [ [ -2.168713829921352, 47.311414171764625 ], [ -2.169012037551367, 47.311211982653326 ], [ -2.168750951203096, 47.311034961675993 ], [ -2.168455218325199, 47.311235473544144 ], [ -2.168713829921352, 47.311414171764625 ] ] ] } },
{ "type": "Feature", "properties": { "fid": 26, "fir": "LFRR", "icao": "LFRZ", "type": "building", "author": "rmaure06" }, "geometry": { "type": "Polygon", "coordinates": [ [ [ -2.169999463645779, 47.31070524803804 ], [ -2.16985716539909, 47.310347846198788 ], [ -2.168715067297411, 47.310580241566278 ], [ -2.168852416039867, 47.310935124939128 ], [ -2.169999463645779, 47.31070524803804 ] ] ] } },
{ "type": "Feature", "properties": { "fid": 27, "fir": "LFRR", "icao": "LFRZ", "type": "cati", "author": "rmaure06" }, "geometry": { "type": "Polygon", "coordinates": [ [ [ -2.161296379140729, 47.311149270313358 ], [ -2.161533955343895, 47.311098093632914 ], [ -2.161525662500468, 47.311080395978472 ], [ -2.161288279472483, 47.311131531063886 ], [ -2.161296379140729, 47.311149270313358 ] ] ] } },
{ "type": "Feature", "properties": { "fid": 28, "fir": "LFRR", "icao": "LFRZ", "type": "apron", "author": "rmaure06" }, "geometry": { "type": "Polygon", "coordinates": [ [ [ -2.163594186480728, 47.31422565284273 ], [ -2.163360322405736, 47.314088070975608 ], [ -2.163380381791854, 47.314072397985257 ], [ -2.163227495445077, 47.313982454967864 ], [ -2.163048110241556, 47.314122613994726 ], [ -2.163209066630011, 47.314217304361165 ], [ -2.163307424579251, 47.314446181566971 ], [ -2.163594186480728, 47.31422565284273 ] ] ] } },
{ "type": "Feature", "properties": { "fid": 29, "fir": "LFRR", "icao": "LFRZ", "type": "building", "author": "rmaure06" }, "geometry": { "type": "Polygon", "coordinates": [ [ [ -2.16337486157442, 47.314626966196997 ], [ -2.163583978128248, 47.314445762112349 ], [ -2.163412336530839, 47.314354714377991 ], [ -2.163211513244228, 47.31452873247617 ], [ -2.16337486157442, 47.314626966196997 ] ] ] } },
{ "type": "Feature", "properties": { "fid": 30, "fir": "LFRR", "icao": "LFRZ", "type": "building", "author": "rmaure06" }, "geometry": { "type": "Polygon", "coordinates": [ [ [ -2.163639660050866, 47.314384521702529 ], [ -2.163739887511577, 47.314294758233842 ], [ -2.163594645326705, 47.314220214896942 ], [ -2.163490616902327, 47.314313382627816 ], [ -2.163639660050866, 47.314384521702529 ] ] ] } }
]
}
