{
"type": "FeatureCollection",
"name": "LFBB_LFBA_REGIONS",
"crs": { "type": "name", "properties": { "name": "urn:ogc:def:crs:OGC:1.3:CRS84" } },
"features": [
{ "type": "Feature", "properties": { "fid": 1, "fir": "LFBB", "icao": "LFBA", "type": "background", "author": "DedpewlControl" }, "geometry": { "type": "Polygon", "coordinates": [ [ [ 0.564592193171029, 44.213393754250518 ], [ 0.644260334486737, 44.190416197102699 ], [ 0.613290509205176, 44.135194533447255 ], [ 0.535102918772893, 44.157766280336951 ], [ 0.564592193171029, 44.213393754250518 ] ] ] } },
{ "type": "Feature", "properties": { "fid": 11, "fir": "LFBB", "icao": "LFBA", "type": "taxiway", "author": "DedpewlControl" }, "geometry": { "type": "Polygon", "coordinates": [ [ [ 0.590274883078143, 44.175970982507486 ], [ 0.590371793829747, 44.175923549984809 ], [ 0.591214148999319, 44.175715170753087 ], [ 0.591379343325967, 44.175658767146466 ], [ 0.595995562603084, 44.174309404939791 ], [ 0.596170471646405, 44.174257547344915 ], [ 0.596539125707028, 44.174889123223231 ], [ 0.593625172634698, 44.175733462296954 ], [ 0.593558389989029, 44.175656600363482 ], [ 0.593469178105479, 44.175626764422852 ], [ 0.593353370960379, 44.175635745355514 ], [ 0.591897653855402, 44.176047621618174 ], [ 0.591807882856917, 44.176104257691584 ], [ 0.59177030441344, 44.176187112016464 ], [ 0.591772552726181, 44.17623168007222 ], [ 0.591816888118314, 44.176311744695845 ], [ 0.591666309957413, 44.176361676125154 ], [ 0.591566962572162, 44.176268082060808 ], [ 0.591512239144338, 44.176233227844541 ], [ 0.591396275706157, 44.176223656274509 ], [ 0.590812081994118, 44.17637880981858 ], [ 0.590719317248791, 44.176385759927854 ], [ 0.590675456741118, 44.176375959889477 ], [ 0.590274883078143, 44.175970982507486 ] ] ] } },
{ "type": "Feature", "properties": { "fid": 12, "fir": "LFBB", "icao": "LFBA", "type": "runway", "author": "DedpewlControl" }, "geometry": { "type": "Polygon", "coordinates": [ [ [ 0.590274883078143, 44.175970982507486 ], [ 0.590371793829747, 44.175923549984809 ], [ 0.591214148999319, 44.175715170753087 ], [ 0.591379343325967, 44.175658767146466 ], [ 0.596170471646405, 44.174257547344915 ], [ 0.595770127549902, 44.173567166059478 ], [ 0.595755375160943, 44.173483359466168 ], [ 0.595817625149826, 44.173383435585045 ], [ 0.595878708867102, 44.173339598382789 ], [ 0.601757142389836, 44.171604444178811 ], [ 0.601854536032856, 44.171646756314573 ], [ 0.601984476399808, 44.171661977141561 ], [ 0.602073513974625, 44.171629435694591 ], [ 0.602125526215682, 44.171578668049925 ], [ 0.602123115604643, 44.171500934033325 ], [ 0.60465800825015, 44.170748852274137 ], [ 0.604766829933473, 44.170744350667512 ], [ 0.605012294885448, 44.170786525472593 ], [ 0.605185212048541, 44.170831701314356 ], [ 0.605309200953111, 44.170835193981766 ], [ 0.605490396116583, 44.170765311007308 ], [ 0.605588036288375, 44.170684035861704 ], [ 0.605595430577223, 44.170589130610672 ], [ 0.605576512164596, 44.17049710987915 ], [ 0.605431158205057, 44.170236207601853 ], [ 0.580369531404837, 44.177582060251979 ], [ 0.580549836694128, 44.177878960300681 ], [ 0.58070716579847, 44.177977337451438 ], [ 0.580870260046025, 44.177995854855531 ], [ 0.58102337508496, 44.177969167459587 ], [ 0.581167256349379, 44.17790239281539 ], [ 0.581249873582571, 44.177802472115324 ], [ 0.581350170894175, 44.177675359253044 ], [ 0.581418378350657, 44.177601776549608 ], [ 0.581480502072545, 44.17755634295056 ], [ 0.589476876784314, 44.175207347356277 ], [ 0.589560726346503, 44.175212021128672 ], [ 0.589640728476406, 44.175260198729006 ], [ 0.590274883078143, 44.175970982507486 ] ] ] } },
{ "type": "Feature", "properties": { "fid": 13, "fir": "LFBB", "icao": "LFBA", "type": "grass", "author": "DedpewlControl" }, "geometry": { "type": "Polygon", "coordinates": [ [ [ 0.589803534158664, 44.175300042036191 ], [ 0.590612344216394, 44.176185917468835 ], [ 0.590741406877032, 44.176235896493921 ], [ 0.590955767931542, 44.176198533021051 ], [ 0.591275656346804, 44.176099092376639 ], [ 0.591355021293947, 44.176043844605324 ], [ 0.591381309974551, 44.175982530455968 ], [ 0.591368655610469, 44.175939350521432 ], [ 0.59078433610373, 44.175065259326949 ], [ 0.590641428786534, 44.174969753157114 ], [ 0.59047892368, 44.174937799856636 ], [ 0.590370847430779, 44.17494741901276 ], [ 0.589797811209401, 44.17512091310094 ], [ 0.589751449854998, 44.175175515006856 ], [ 0.589751323588003, 44.175230000459941 ], [ 0.589803534158664, 44.175300042036191 ] ] ] } },
{ "type": "Feature", "properties": { "fid": 14, "fir": "LFBB", "icao": "LFBA", "type": "grass", "author": "DedpewlControl" }, "geometry": { "type": "Polygon", "coordinates": [ [ [ 0.590935353117786, 44.174997946757891 ], [ 0.59152577437477, 44.175887711369633 ], [ 0.591669409110416, 44.175944511486982 ], [ 0.591790572571659, 44.175946085221511 ], [ 0.595933846497489, 44.174743653692445 ], [ 0.596049160742476, 44.174620582854594 ], [ 0.596097127221643, 44.174492514562075 ], [ 0.596066468182552, 44.174410205419086 ], [ 0.595626534850781, 44.173612619960743 ], [ 0.595531359494415, 44.173541839069465 ], [ 0.595409288300771, 44.173501985960073 ], [ 0.595327518747807, 44.173494112766669 ], [ 0.591088372073255, 44.174737534424366 ], [ 0.590988501604374, 44.174818058074941 ], [ 0.590936206803241, 44.174904755842199 ], [ 0.590935353117786, 44.174997946757891 ] ] ] } },
{ "type": "Feature", "properties": { "fid": 15, "fir": "LFBB", "icao": "LFBA", "type": "apron", "author": "DedpewlControl" }, "geometry": { "type": "Polygon", "coordinates": [ [ [ 0.593625172634698, 44.175733462296954 ], [ 0.596539125707028, 44.174889123223231 ], [ 0.596797244865652, 44.17533572186975 ], [ 0.596306699610472, 44.175463775297146 ], [ 0.596390008073379, 44.175598744305518 ], [ 0.596335314671641, 44.175636927388631 ], [ 0.596451362182864, 44.175851004085445 ], [ 0.596913508564697, 44.176075669170601 ], [ 0.596930172659366, 44.176108505682414 ], [ 0.596753576052637, 44.176877079937526 ], [ 0.596479171285464, 44.176956677976449 ], [ 0.596256009461808, 44.176560729992296 ], [ 0.596321415495832, 44.17654365653565 ], [ 0.595928354434227, 44.175849408700635 ], [ 0.595765139924894, 44.175899982936599 ], [ 0.595669627961496, 44.175733669709366 ], [ 0.593895357016381, 44.176236668960492 ], [ 0.593625172634698, 44.175733462296954 ] ] ] } },
{ "type": "Feature", "properties": { "fid": 16, "fir": "LFBB", "icao": "LFBA", "type": "apron", "author": "DedpewlControl" }, "geometry": { "type": "Polygon", "coordinates": [ [ [ 0.591666309957413, 44.176361676125154 ], [ 0.591816888118314, 44.176311744695845 ], [ 0.592060369144539, 44.176590831811588 ], [ 0.592233130014551, 44.176617450920766 ], [ 0.592409161186264, 44.176643216346399 ], [ 0.593202485431369, 44.177469367144276 ], [ 0.592577016131429, 44.17775481651654 ], [ 0.591811621722996, 44.176881536878042 ], [ 0.591877244259706, 44.176667851995866 ], [ 0.591666309957413, 44.176361676125154 ] ] ] } },
{ "type": "Feature", "properties": { "fid": 17, "fir": "LFBB", "icao": "LFBA", "type": "cati", "author": "DedpewlControl" }, "geometry": { "type": "Polygon", "coordinates": [ [ [ 0.590274883078143, 44.175970982507486 ], [ 0.590371793829747, 44.175923549984809 ], [ 0.590355444104368, 44.175904540736163 ], [ 0.590257530177129, 44.175951532852444 ], [ 0.590274883078143, 44.175970982507486 ] ] ] } },
{ "type": "Feature", "properties": { "fid": 18, "fir": "LFBB", "icao": "LFBA", "type": "cati", "author": "DedpewlControl" }, "geometry": { "type": "Polygon", "coordinates": [ [ [ 0.591217341147351, 44.175712998479661 ], [ 0.591202964921046, 44.175691492967559 ], [ 0.591358492803166, 44.1756356194673 ], [ 0.591373818236189, 44.175658714809053 ], [ 0.591217341147351, 44.175712998479661 ] ] ] } },
{ "type": "Feature", "properties": { "fid": 19, "fir": "LFBB", "icao": "LFBA", "type": "cati", "author": "DedpewlControl" }, "geometry": { "type": "Polygon", "coordinates": [ [ [ 0.59600915303384, 44.174306295446833 ], [ 0.595992907364134, 44.174276842692457 ], [ 0.596153354912935, 44.174228030221144 ], [ 0.596170471646405, 44.174257547344915 ], [ 0.59600915303384, 44.174306295446833 ] ] ] } },
{ "type": "Feature", "properties": { "fid": 20, "fir": "LFBB", "icao": "LFBA", "type": "building", "author": "DedpewlControl" }, "geometry": { "type": "Polygon", "coordinates": [ [ [ 0.59188185536667, 44.177306667092907 ], [ 0.591565750432998, 44.176965971289235 ], [ 0.591792074569399, 44.176857311142236 ], [ 0.592080665157794, 44.177166491757909 ], [ 0.592015560014351, 44.177197749148839 ], [ 0.59205206263373, 44.17723685597862 ], [ 0.59188185536667, 44.177306667092907 ] ] ] } },
{ "type": "Feature", "properties": { "fid": 21, "fir": "LFBB", "icao": "LFBA", "type": "building", "author": "DedpewlControl" }, "geometry": { "type": "Polygon", "coordinates": [ [ [ 0.592053594195244, 44.177499117443197 ], [ 0.592295772884083, 44.177382778203132 ], [ 0.592586373076447, 44.177693926431751 ], [ 0.592336001063999, 44.177814200990689 ], [ 0.592053594195244, 44.177499117443197 ] ] ] } },
{ "type": "Feature", "properties": { "fid": 22, "fir": "LFBB", "icao": "LFBA", "type": "building", "author": "DedpewlControl" }, "geometry": { "type": "Polygon", "coordinates": [ [ [ 0.593096187153693, 44.177373937092675 ], [ 0.592765806717262, 44.17702457279011 ], [ 0.593069453553148, 44.176876875544025 ], [ 0.593403714779043, 44.177230344501687 ], [ 0.593096187153693, 44.177373937092675 ] ] ] } },
{ "type": "Feature", "properties": { "fid": 23, "fir": "LFBB", "icao": "LFBA", "type": "building", "author": "DedpewlControl" }, "geometry": { "type": "Polygon", "coordinates": [ [ [ 0.592990271350599, 44.176732238687947 ], [ 0.59291747513616, 44.176613121272304 ], [ 0.593440642968214, 44.176448665402518 ], [ 0.593515321946096, 44.176570863946679 ], [ 0.592990271350599, 44.176732238687947 ] ] ] } },
{ "type": "Feature", "properties": { "fid": 24, "fir": "LFBB", "icao": "LFBA", "type": "building", "author": "DedpewlControl" }, "geometry": { "type": "Polygon", "coordinates": [ [ [ 0.593594155036932, 44.176496688403191 ], [ 0.593542583703249, 44.176414528643647 ], [ 0.593669643234082, 44.176373505034043 ], [ 0.593720827606873, 44.17645504837234 ], [ 0.593594155036932, 44.176496688403191 ] ] ] } },
{ "type": "Feature", "properties": { "fid": 25, "fir": "LFBB", "icao": "LFBA", "type": "building", "author": "DedpewlControl" }, "geometry": { "type": "Polygon", "coordinates": [ [ [ 0.593834193559419, 44.176478298526156 ], [ 0.593771112061652, 44.176363727791461 ], [ 0.594037144666007, 44.1762883850637 ], [ 0.593998213712456, 44.176217677157041 ], [ 0.594188278645655, 44.17616384900537 ], [ 0.594236080040766, 44.176219332829064 ], [ 0.594630688439088, 44.176096845751076 ], [ 0.594708398426212, 44.176225621537917 ], [ 0.593834193559419, 44.176478298526156 ] ] ] } },
{ "type": "Feature", "properties": { "fid": 26, "fir": "LFBB", "icao": "LFBA", "type": "building", "author": "DedpewlControl" }, "geometry": { "type": "Polygon", "coordinates": [ [ [ 0.595097307530488, 44.176111390034336 ], [ 0.595037600529811, 44.176008333227841 ], [ 0.595307767443879, 44.17592782056164 ], [ 0.595366306321822, 44.17602886127861 ], [ 0.595097307530488, 44.176111390034336 ] ] ] } },
{ "type": "Feature", "properties": { "fid": 27, "fir": "LFBB", "icao": "LFBA", "type": "building", "author": "DedpewlControl" }, "geometry": { "type": "Polygon", "coordinates": [ [ [ 0.596528521393574, 44.175764346878076 ], [ 0.596416056770214, 44.175586521418396 ], [ 0.59704806522352, 44.17538091590778 ], [ 0.597171261765192, 44.175575710984049 ], [ 0.596528521393574, 44.175764346878076 ] ] ] } },
{ "type": "Feature", "properties": { "fid": 28, "fir": "LFBB", "icao": "LFBA", "type": "building", "author": "DedpewlControl" }, "geometry": { "type": "Polygon", "coordinates": [ [ [ 0.595593695944228, 44.176213785660821 ], [ 0.596120703467234, 44.176060278669844 ], [ 0.596355126324235, 44.17647424909017 ], [ 0.595822165350517, 44.176629489112848 ], [ 0.595593695944228, 44.176213785660821 ] ] ] } },
{ "type": "Feature", "properties": { "fid": 29, "fir": "LFBB", "icao": "LFBA", "type": "building", "author": "DedpewlControl" }, "geometry": { "type": "Polygon", "coordinates": [ [ [ 0.596150889361218, 44.17667925428696 ], [ 0.5963815899138, 44.176608408165848 ], [ 0.596516339054908, 44.176834108491988 ], [ 0.596287649737915, 44.176904336711821 ], [ 0.596150889361218, 44.17667925428696 ] ] ] } }
]
}
