{
"type": "FeatureCollection",
"name": "LFBB_LFBA_GEO",
"crs": { "type": "name", "properties": { "name": "urn:ogc:def:crs:OGC:1.3:CRS84" } },
"features": [
{ "type": "Feature", "properties": { "fid": 1, "fir": "LFBB", "icao": "LFBA", "type": "twy_centerline", "author": "DedpewlControl" }, "geometry": { "type": "LineString", "coordinates": [ [ 0.589615906182045, 44.175181790126352 ], [ 0.590597140397802, 44.176239578846705 ], [ 0.590675258898819, 44.176286476528162 ], [ 0.590779331422671, 44.176301808250884 ], [ 0.590870907877261, 44.176297381796942 ], [ 0.595992529046379, 44.174795736912486 ], [ 0.59608922740373, 44.174713827764457 ], [ 0.5961488623418, 44.174641593775675 ], [ 0.596172018998132, 44.174555861419805 ], [ 0.596166817025808, 44.174438573505981 ], [ 0.595672881679444, 44.17355281849192 ] ] } },
{ "type": "Feature", "properties": { "fid": 2, "fir": "LFBB", "icao": "LFBA", "type": "twy_centerline", "author": "DedpewlControl" }, "geometry": { "type": "LineString", "coordinates": [ [ 0.596663132957125, 44.175329006207249 ], [ 0.596166817025808, 44.174438573505981 ] ] } },
{ "type": "Feature", "properties": { "fid": 3, "fir": "LFBB", "icao": "LFBA", "type": "twy_centerline", "author": "DedpewlControl" }, "geometry": { "type": "LineString", "coordinates": [ [ 0.595992529046379, 44.174795736912486 ], [ 0.596162183967205, 44.174740824246278 ], [ 0.596223830750416, 44.17474066904196 ], [ 0.596311255193513, 44.174762117905594 ], [ 0.596369539890765, 44.174802277072679 ] ] } },
{ "type": "Feature", "properties": { "fid": 4, "fir": "LFBB", "icao": "LFBA", "type": "twy_centerline", "author": "DedpewlControl" }, "geometry": { "type": "LineString", "coordinates": [ [ 0.590772021941554, 44.174915408697814 ], [ 0.591932120516919, 44.176622428094994 ] ] } },
{ "type": "Feature", "properties": { "fid": 5, "fir": "LFBB", "icao": "LFBA", "type": "twy_centerline", "author": "DedpewlControl" }, "geometry": { "type": "LineString", "coordinates": [ [ 0.591382694202813, 44.176147329209115 ], [ 0.591489199286093, 44.176151035028717 ], [ 0.59159010970711, 44.176189327014008 ], [ 0.591679354107744, 44.17625050083975 ], [ 0.591673149727069, 44.176153484008701 ], [ 0.591705131383325, 44.17607784567862 ], [ 0.591759645901964, 44.176036809056285 ], [ 0.591655455688961, 44.176026179295455 ], [ 0.591565153704843, 44.175996628102119 ], [ 0.591467851184546, 44.175939287978757 ], [ 0.591475268502276, 44.176016550190461 ], [ 0.591455378144167, 44.176091688465995 ], [ 0.59138479829226, 44.176146712302298 ] ] } },
{ "type": "Feature", "properties": { "fid": 6, "fir": "LFBB", "icao": "LFBA", "type": "twy_centerline", "author": "DedpewlControl" }, "geometry": { "type": "LineString", "coordinates": [ [ 0.588393262260124, 44.17538762158393 ], [ 0.589124607538282, 44.175164833995623 ], [ 0.589302991270601, 44.175127122034709 ], [ 0.589458595093355, 44.17512723129645 ], [ 0.589615906182045, 44.175181790126352 ], [ 0.589630630599133, 44.17507700995013 ], [ 0.589784214569789, 44.174985563953292 ], [ 0.590044243642294, 44.174894663975003 ], [ 0.590357799844929, 44.174821665672653 ], [ 0.590530845276756, 44.174817221879408 ], [ 0.590641859171648, 44.174841366912581 ], [ 0.590772021941554, 44.174915408697814 ], [ 0.590753434183213, 44.174783907550449 ], [ 0.590864600420185, 44.17469645077388 ], [ 0.591045741484224, 44.174615518808366 ], [ 0.591455410906666, 44.174483784260048 ], [ 0.59182782453297, 44.174375941658177 ] ] } },
{ "type": "Feature", "properties": { "fid": 7, "fir": "LFBB", "icao": "LFBA", "type": "twy_centerline", "author": "DedpewlControl" }, "geometry": { "type": "LineString", "coordinates": [ [ 0.581876031806829, 44.177294282428939 ], [ 0.581366069128738, 44.177442451550853 ], [ 0.580850888254501, 44.177916027135311 ], [ 0.5807420625677, 44.177910790217553 ], [ 0.580667811516361, 44.177869081863982 ], [ 0.580620708783811, 44.177807891752146 ], [ 0.580609683565362, 44.177749679321835 ], [ 0.580643055897913, 44.177681648349761 ], [ 0.580703095607098, 44.177629675849623 ], [ 0.580793373570347, 44.177600798079673 ] ] } },
{ "type": "Feature", "properties": { "fid": 8, "fir": "LFBB", "icao": "LFBA", "type": "twy_centerline", "author": "DedpewlControl" }, "geometry": { "type": "LineString", "coordinates": [ [ 0.604297020201325, 44.170713481969258 ], [ 0.604699163115185, 44.170596100266522 ], [ 0.605404265700261, 44.170667040058859 ], [ 0.605423366533532, 44.170600070268023 ], [ 0.605398262192664, 44.170528702229902 ], [ 0.605330247165522, 44.170467651101909 ], [ 0.605230134276301, 44.170440658407067 ], [ 0.605144405088705, 44.170444444261811 ], [ 0.605050163487347, 44.170475245780281 ] ] } },
{ "type": "Feature", "properties": { "fid": 9, "fir": "LFBB", "icao": "LFBA", "type": "gate_centerline", "author": "DedpewlControl" }, "geometry": { "type": "LineString", "coordinates": [ [ 0.596305451754876, 44.175351544147262 ], [ 0.596624409554253, 44.175259533635376 ] ] } },
{ "type": "Feature", "properties": { "fid": 10, "fir": "LFBB", "icao": "LFBA", "type": "gate_centerline", "author": "DedpewlControl" }, "geometry": { "type": "LineString", "coordinates": [ [ 0.596221507108113, 44.175206006115715 ], [ 0.59654046490749, 44.17511399560383 ] ] } },
{ "type": "Feature", "properties": { "fid": 11, "fir": "LFBB", "icao": "LFBA", "type": "gate_centerline", "author": "DedpewlControl" }, "geometry": { "type": "LineString", "coordinates": [ [ 0.596150883087852, 44.1750668394888 ], [ 0.596469840887229, 44.174974828976914 ] ] } },
{ "type": "Feature", "properties": { "fid": 12, "fir": "LFBB", "icao": "LFBA", "type": "gate_centerline", "author": "DedpewlControl" }, "geometry": { "type": "LineString", "coordinates": [ [ 0.595788792127823, 44.175603287468867 ], [ 0.595976089041541, 44.175549082653788 ] ] } },
{ "type": "Feature", "properties": { "fid": 13, "fir": "LFBB", "icao": "LFBA", "type": "gate_centerline", "author": "DedpewlControl" }, "geometry": { "type": "LineString", "coordinates": [ [ 0.595714739279255, 44.175481934182763 ], [ 0.595902036192972, 44.175427729367684 ] ] } },
{ "type": "Feature", "properties": { "fid": 14, "fir": "LFBB", "icao": "LFBA", "type": "gate_centerline", "author": "DedpewlControl" }, "geometry": { "type": "LineString", "coordinates": [ [ 0.595641542297179, 44.175352293948841 ], [ 0.595828839210896, 44.175298089133761 ] ] } },
{ "type": "Feature", "properties": { "fid": 15, "fir": "LFBB", "icao": "LFBA", "type": "gate_centerline", "author": "DedpewlControl" }, "geometry": { "type": "LineString", "coordinates": [ [ 0.595571519428373, 44.175228908098454 ], [ 0.59575881634209, 44.175174703283375 ] ] } },
{ "type": "Feature", "properties": { "fid": 16, "fir": "LFBB", "icao": "LFBA", "type": "gate_centerline", "author": "DedpewlControl" }, "geometry": { "type": "LineString", "coordinates": [ [ 0.595164372998627, 44.175550249466305 ], [ 0.595393093733893, 44.175485231218609 ] ] } },
{ "type": "Feature", "properties": { "fid": 17, "fir": "LFBB", "icao": "LFBA", "type": "gate_centerline", "author": "DedpewlControl" }, "geometry": { "type": "LineString", "coordinates": [ [ 0.595065834949396, 44.175385614047471 ], [ 0.595294555684662, 44.175320595799775 ] ] } },
{ "type": "Feature", "properties": { "fid": 18, "fir": "LFBB", "icao": "LFBA", "type": "gate_centerline", "author": "DedpewlControl" }, "geometry": { "type": "LineString", "coordinates": [ [ 0.593896161145662, 44.176053072185979 ], [ 0.594926987507515, 44.175753880972785 ] ] } },
{ "type": "Feature", "properties": { "fid": 19, "fir": "LFBB", "icao": "LFBA", "type": "gate_centerline", "author": "DedpewlControl" }, "geometry": { "type": "LineString", "coordinates": [ [ 0.593782886980073, 44.175834730678119 ], [ 0.59420524484864, 44.175708540628165 ] ] } },
{ "type": "Feature", "properties": { "fid": 20, "fir": "LFBB", "icao": "LFBA", "type": "gate_centerline", "author": "DedpewlControl" }, "geometry": { "type": "LineString", "coordinates": [ [ 0.594327135728333, 44.175671409623973 ], [ 0.594754647527486, 44.175545644632564 ] ] } },
{ "type": "Feature", "properties": { "fid": 21, "fir": "LFBB", "icao": "LFBA", "type": "gate_centerline", "author": "DedpewlControl" }, "geometry": { "type": "LineString", "coordinates": [ [ 0.592194229493702, 44.176769156174053 ], [ 0.592498403583217, 44.176777408389093 ] ] } },
{ "type": "Feature", "properties": { "fid": 22, "fir": "LFBB", "icao": "LFBA", "type": "gate_centerline", "author": "DedpewlControl" }, "geometry": { "type": "LineString", "coordinates": [ [ 0.592285280862922, 44.176933974716491 ], [ 0.592633760318485, 44.17694925458823 ] ] } }
]
}
