{
"type": "FeatureCollection",
"name": "LFBB_LFBU_REGIONS",
"crs": { "type": "name", "properties": { "name": "urn:ogc:def:crs:OGC:1.3:CRS84" } },
"features": [
{ "type": "Feature", "properties": { "fid": 1, "fir": "LFBB", "icao": "LFBU", "type": "background", "author": "DedpewlControl" }, "geometry": { "type": "Polygon", "coordinates": [ [ [ 0.183924099649192, 45.755054242507711 ], [ 0.265811021965991, 45.748560511033844 ], [ 0.258867826075164, 45.705913102184176 ], [ 0.176426661807286, 45.712455776690319 ], [ 0.183924099649192, 45.755054242507711 ] ] ] } },
{ "type": "Feature", "properties": { "fid": 2, "fir": "LFBB", "icao": "LFBU", "type": "taxiway", "author": "DedpewlControl" }, "geometry": { "type": "Polygon", "coordinates": [ [ [ 0.206464414526297, 45.730358390358688 ], [ 0.206532031521623, 45.730776017216122 ], [ 0.206608970706509, 45.730881192837451 ], [ 0.206680457454649, 45.730935437870464 ], [ 0.206787840630099, 45.730967842037792 ], [ 0.206879206046772, 45.730968985573341 ], [ 0.207002003611096, 45.730949486745573 ], [ 0.207105429736666, 45.730912883928333 ], [ 0.207157204020746, 45.730874997159631 ], [ 0.207225665076327, 45.730792440735954 ], [ 0.20729955521387, 45.730860349115282 ], [ 0.2076935851186, 45.7307017544451 ], [ 0.207687364581322, 45.730666390605769 ], [ 0.230283962465977, 45.728743527351405 ], [ 0.230202932224574, 45.728336009586151 ], [ 0.230166842950173, 45.728281447653274 ], [ 0.230112923766606, 45.728222974715251 ], [ 0.230031531941671, 45.728176646962261 ], [ 0.229960051013337, 45.728151226433503 ], [ 0.229860666022446, 45.728153217842163 ], [ 0.229756432455992, 45.728171942377259 ], [ 0.229655780411, 45.72821102880971 ], [ 0.229511224986652, 45.728301742939713 ], [ 0.22930288997082, 45.728419680173843 ], [ 0.223197730201056, 45.728936430238434 ], [ 0.223167430042745, 45.728932500342623 ], [ 0.223147122409428, 45.728923362698005 ], [ 0.223131259139951, 45.728904053726012 ], [ 0.223126492192781, 45.728894671902388 ], [ 0.222975018912953, 45.728006930791153 ], [ 0.222950888803237, 45.727931762360349 ], [ 0.222920159188861, 45.727881092014613 ], [ 0.222851669034259, 45.727819516190721 ], [ 0.222747464642393, 45.727767528504657 ], [ 0.222650100710122, 45.727736711361608 ], [ 0.222531350591563, 45.727734923385789 ], [ 0.21916386241269, 45.728019205652942 ], [ 0.219235562981866, 45.727912978757892 ], [ 0.219350572252421, 45.727822620768073 ], [ 0.219485457735105, 45.727756667274278 ], [ 0.219619291874281, 45.727720175643277 ], [ 0.21992182416969, 45.727694788885081 ], [ 0.219891259777227, 45.727529880145937 ], [ 0.219014999805518, 45.727615864897196 ], [ 0.218926660648252, 45.727521178926317 ], [ 0.218836327641831, 45.727450596407543 ], [ 0.218716798274412, 45.727391219109265 ], [ 0.218555468214651, 45.727324546069475 ], [ 0.218396102829454, 45.727304482263079 ], [ 0.218281231571349, 45.727289307564284 ], [ 0.218070179841555, 45.727294343145317 ], [ 0.217766206578207, 45.727320397521254 ], [ 0.215022366903842, 45.72756210602958 ], [ 0.214985739335518, 45.727495623135347 ], [ 0.214947871922557, 45.727457530547206 ], [ 0.214904240637846, 45.727422107671273 ], [ 0.214873536267811, 45.727424739420961 ], [ 0.214830798965192, 45.727226061915644 ], [ 0.214187730914085, 45.72728226893576 ], [ 0.214261594182311, 45.727773084902338 ], [ 0.214788578340138, 45.727721388943237 ], [ 0.214820386507486, 45.727733892429725 ], [ 0.214836438278093, 45.727754273493936 ], [ 0.214849231110566, 45.727773846036698 ], [ 0.215161523063431, 45.729567013331852 ], [ 0.215139167162029, 45.729599388088246 ], [ 0.215109162377583, 45.729623715940939 ], [ 0.206464414526297, 45.730358390358688 ] ] ] } },
{ "type": "Feature", "properties": { "fid": 3, "fir": "LFBB", "icao": "LFBU", "type": "grass", "author": "DedpewlControl" }, "geometry": { "type": "Polygon", "coordinates": [ [ [ 0.215270523577052, 45.729557670978217 ], [ 0.215086464846143, 45.72853784265812 ], [ 0.215088136111968, 45.728494186224985 ], [ 0.215107044574108, 45.728459930649777 ], [ 0.215123959187092, 45.728449778234996 ], [ 0.215208046411894, 45.728431692724754 ], [ 0.215345839074793, 45.728417706713799 ], [ 0.218843335968759, 45.728123914993546 ], [ 0.218987943544648, 45.728937183073747 ], [ 0.218988264162854, 45.729018742145314 ], [ 0.218964991000145, 45.729099059865128 ], [ 0.218911417679125, 45.729175447590741 ], [ 0.218836001506286, 45.729242829202697 ], [ 0.218720131358477, 45.729301712072299 ], [ 0.218606847772677, 45.729331002221421 ], [ 0.215370041667584, 45.729605163519338 ], [ 0.215320160671009, 45.729605087545579 ], [ 0.215285093565528, 45.729591775990272 ], [ 0.215270523577052, 45.729557670978217 ] ] ] } },
{ "type": "Feature", "properties": { "fid": 4, "fir": "LFBB", "icao": "LFBU", "type": "grass", "author": "DedpewlControl" }, "geometry": { "type": "Polygon", "coordinates": [ [ [ 0.219152291889872, 45.728099609596896 ], [ 0.222464350911017, 45.727810288089522 ], [ 0.222586548468839, 45.727813956262963 ], [ 0.222681273385295, 45.727829769757804 ], [ 0.222763473633677, 45.727862974399685 ], [ 0.222818012739563, 45.727907252641629 ], [ 0.222852378294332, 45.727960874842516 ], [ 0.222867135801372, 45.728027056022917 ], [ 0.223009762150278, 45.728891079088768 ], [ 0.222998906782907, 45.72892681981029 ], [ 0.222988105834465, 45.728945150706139 ], [ 0.222974638660744, 45.728957183192399 ], [ 0.21983646354202, 45.729225068317163 ], [ 0.2197271132356, 45.729223562549045 ], [ 0.219574669938396, 45.729198554868468 ], [ 0.219487648323914, 45.729173378977897 ], [ 0.219394406172155, 45.729112838253037 ], [ 0.219325377723629, 45.729039343911026 ], [ 0.219289692660952, 45.728978221096391 ], [ 0.219266639139085, 45.728926893780226 ], [ 0.219152291889872, 45.728099609596896 ] ] ] } },
{ "type": "Feature", "properties": { "fid": 5, "fir": "LFBB", "icao": "LFBU", "type": "grass", "author": "DedpewlControl" }, "geometry": { "type": "Polygon", "coordinates": [ [ [ 0.215234861264431, 45.728353790065292 ], [ 0.21514658620058, 45.728361356219082 ], [ 0.215111586136199, 45.728357285200595 ], [ 0.215085824592293, 45.728343719674207 ], [ 0.215069274359397, 45.728329364632437 ], [ 0.215051889476151, 45.728305834539483 ], [ 0.214956178027583, 45.727761687829116 ], [ 0.214969511119104, 45.727731173216277 ], [ 0.215001226018449, 45.727712137188725 ], [ 0.215036078395898, 45.727702078922583 ], [ 0.215101325182223, 45.727696486482138 ], [ 0.216878906101397, 45.727547389581595 ], [ 0.216891360780685, 45.727613768632459 ], [ 0.216862285879716, 45.727616804631246 ], [ 0.216874996101234, 45.727693496231709 ], [ 0.216999550905738, 45.72767955683527 ], [ 0.216985197610421, 45.727606813513255 ], [ 0.216947679007693, 45.727610573241172 ], [ 0.216935803436527, 45.727543056701165 ], [ 0.217255721597746, 45.727510196507481 ], [ 0.217270074893062, 45.727582939955305 ], [ 0.217244743787783, 45.727585111142545 ], [ 0.217253050459657, 45.727658916685314 ], [ 0.217377793765291, 45.72764604897003 ], [ 0.217365164189606, 45.727574245708432 ], [ 0.21732918080538, 45.727577873851423 ], [ 0.217314544758369, 45.727503522858228 ], [ 0.218141487167838, 45.727432847548982 ], [ 0.218275185259691, 45.727439881410156 ], [ 0.21842049075831, 45.727477468026855 ], [ 0.218541205551437, 45.72752586513915 ], [ 0.218666794164469, 45.727610831284132 ], [ 0.218750688957894, 45.727715688647159 ], [ 0.21878955133031, 45.727803736605374 ], [ 0.218826227422193, 45.728038830270322 ], [ 0.215234861264431, 45.728353790065292 ] ] ] } },
{ "type": "Feature", "properties": { "fid": 6, "fir": "LFBB", "icao": "LFBU", "type": "unused", "author": "DedpewlControl" }, "geometry": { "type": "Polygon", "coordinates": [ [ [ 0.222983742109812, 45.728058055309447 ], [ 0.222975018912953, 45.728006930791146 ], [ 0.222972098351905, 45.727997832868937 ], [ 0.223132707108584, 45.727991987284391 ], [ 0.223143761634132, 45.728045975671023 ], [ 0.222983742109812, 45.728058055309447 ] ] ] } },
{ "type": "Feature", "properties": { "fid": 7, "fir": "LFBB", "icao": "LFBU", "type": "unused", "author": "DedpewlControl" }, "geometry": { "type": "Polygon", "coordinates": [ [ [ 0.214996170495101, 45.72861757299048 ], [ 0.214987584101814, 45.728568270211944 ], [ 0.214811813154575, 45.728585519475139 ], [ 0.214820672707667, 45.728635888025082 ], [ 0.214996170495101, 45.72861757299048 ] ] ] } },
{ "type": "Feature", "properties": { "fid": 8, "fir": "LFBB", "icao": "LFBU", "type": "runway", "author": "DedpewlControl" }, "geometry": { "type": "Polygon", "coordinates": [ [ [ 0.206464414526297, 45.730358390358688 ], [ 0.206530414406672, 45.730766029369605 ], [ 0.230282944047802, 45.728743274695113 ], [ 0.2302101554023, 45.728338314030935 ], [ 0.223197730201056, 45.728936430238434 ], [ 0.223167430042745, 45.728932500342623 ], [ 0.223147122409428, 45.728923362698005 ], [ 0.223131259139951, 45.728904053726012 ], [ 0.223032387310782, 45.72834315204895 ], [ 0.22292070124034, 45.728351554256754 ], [ 0.223009762150278, 45.728891079088768 ], [ 0.222998906782907, 45.72892681981029 ], [ 0.222988105834465, 45.728945150706139 ], [ 0.222974638660744, 45.728957183192399 ], [ 0.21983646354202, 45.729225068317163 ], [ 0.2197271132356, 45.729223562549045 ], [ 0.219574669938396, 45.729198554868468 ], [ 0.219487648323914, 45.729173378977897 ], [ 0.219394406172155, 45.729112838253037 ], [ 0.219325377723629, 45.729039343911026 ], [ 0.219289692660952, 45.728978221096391 ], [ 0.219266639139085, 45.728926893780226 ], [ 0.219230381867987, 45.728664579510117 ], [ 0.218943697403055, 45.728688345538075 ], [ 0.218987943544648, 45.728937183073747 ], [ 0.218988264162854, 45.729018742145314 ], [ 0.218964991000145, 45.729099059865128 ], [ 0.218911417679125, 45.729175447590741 ], [ 0.218836001506286, 45.729242829202697 ], [ 0.218720131358477, 45.729301712072299 ], [ 0.218606847772677, 45.729331002221421 ], [ 0.215370041667584, 45.729605163519338 ], [ 0.215320160671009, 45.729605087545579 ], [ 0.215285093565528, 45.729591775990272 ], [ 0.215270523577052, 45.729557670978217 ], [ 0.215171229014132, 45.72900750429465 ], [ 0.215065708046859, 45.729016853646911 ], [ 0.215161523063431, 45.729567013331852 ], [ 0.215139167162029, 45.729599388088246 ], [ 0.215109162377583, 45.729623715940939 ], [ 0.206464414526297, 45.730358390358688 ] ] ] } },
{ "type": "Feature", "properties": { "fid": 9, "fir": "LFBB", "icao": "LFBU", "type": "grass_taxiway", "author": "DedpewlControl" }, "geometry": { "type": "Polygon", "coordinates": [ [ [ 0.21200897868056, 45.729886714717672 ], [ 0.211924462672122, 45.72936629886626 ], [ 0.212202953250768, 45.72934487713588 ], [ 0.212290531852235, 45.729862762904986 ], [ 0.21200897868056, 45.729886714717672 ] ] ] } },
{ "type": "Feature", "properties": { "fid": 10, "fir": "LFBB", "icao": "LFBU", "type": "grass_runway", "author": "DedpewlControl" }, "geometry": { "type": "Polygon", "coordinates": [ [ [ 0.212202953250768, 45.72934487713588 ], [ 0.211924462672122, 45.72936629886626 ], [ 0.208557243886163, 45.729648782053864 ], [ 0.208505620557912, 45.729385197418587 ], [ 0.212432850615251, 45.729057161922555 ], [ 0.212476050403201, 45.729322693875126 ], [ 0.212202953250768, 45.72934487713588 ] ] ] } },
{ "type": "Feature", "properties": { "fid": 11, "fir": "LFBB", "icao": "LFBU", "type": "cati", "author": "DedpewlControl" }, "geometry": { "type": "Polygon", "coordinates": [ [ [ 0.215065708046859, 45.729016853646911 ], [ 0.215062076818097, 45.72899600340908 ], [ 0.21516754053365, 45.728987067229617 ], [ 0.215171229014132, 45.72900750429465 ], [ 0.215065708046859, 45.729016853646911 ] ] ] } },
{ "type": "Feature", "properties": { "fid": 12, "fir": "LFBB", "icao": "LFBU", "type": "cati", "author": "DedpewlControl" }, "geometry": { "type": "Polygon", "coordinates": [ [ [ 0.218943697403055, 45.728688345538075 ], [ 0.218939062182709, 45.728662277284322 ], [ 0.219226876557433, 45.728639219208041 ], [ 0.219230381867987, 45.728664579510117 ], [ 0.218943697403055, 45.728688345538075 ] ] ] } },
{ "type": "Feature", "properties": { "fid": 13, "fir": "LFBB", "icao": "LFBU", "type": "cati", "author": "DedpewlControl" }, "geometry": { "type": "Polygon", "coordinates": [ [ [ 0.22292070124034, 45.728351554256754 ], [ 0.222917057764247, 45.72832948221965 ], [ 0.2230284939482, 45.728320334127567 ], [ 0.223032387310782, 45.72834315204895 ], [ 0.22292070124034, 45.728351554256754 ] ] ] } },
{ "type": "Feature", "properties": { "fid": 14, "fir": "LFBB", "icao": "LFBU", "type": "apron", "author": "DedpewlControl" }, "geometry": { "type": "Polygon", "coordinates": [ [ [ 0.21992182416969, 45.727694788885074 ], [ 0.219891259777227, 45.727529880145937 ], [ 0.219014999805518, 45.727615864897196 ], [ 0.218926660648252, 45.727521178926317 ], [ 0.218836327641831, 45.727450596407543 ], [ 0.218716798274412, 45.727391219109265 ], [ 0.218555468214651, 45.727324546069468 ], [ 0.218396102829454, 45.727304482263087 ], [ 0.218281231571349, 45.727289307564277 ], [ 0.218070179841555, 45.727294343145317 ], [ 0.217766206578207, 45.727320397521254 ], [ 0.215022366903842, 45.72756210602958 ], [ 0.214985739335518, 45.727495623135347 ], [ 0.214947871922557, 45.727457530547198 ], [ 0.217363468396435, 45.727249803461291 ], [ 0.217456254203862, 45.727049707896555 ], [ 0.218267364795279, 45.726976513509399 ], [ 0.21832057103416, 45.727009892126794 ], [ 0.21919234291785, 45.726932722051316 ], [ 0.219228037484933, 45.726906409527423 ], [ 0.219222311763121, 45.726873856509748 ], [ 0.219223251850148, 45.726849299038768 ], [ 0.219230645682243, 45.726831531456455 ], [ 0.220552953424049, 45.726724311018209 ], [ 0.2207087590743, 45.727630058596667 ], [ 0.21992182416969, 45.727694788885074 ] ] ] } },
{ "type": "Feature", "properties": { "fid": 15, "fir": "LFBB", "icao": "LFBU", "type": "unused", "author": "DedpewlControl" }, "geometry": { "type": "Polygon", "coordinates": [ [ [ 0.220565401190651, 45.726796674366661 ], [ 0.220552953424049, 45.726724311018209 ], [ 0.220678275714971, 45.726714181114275 ], [ 0.220671290705095, 45.726739256776717 ], [ 0.22066001850383, 45.726754909123322 ], [ 0.22064897367166, 45.72676687043689 ], [ 0.22063005076394, 45.726778895082333 ], [ 0.220565401190651, 45.726796674366661 ] ] ] } },
{ "type": "Feature", "properties": { "fid": 16, "fir": "LFBB", "icao": "LFBU", "type": "building", "author": "DedpewlControl" }, "geometry": { "type": "Polygon", "coordinates": [ [ [ 0.214904240637846, 45.727422107671273 ], [ 0.214980164115268, 45.727414920169529 ], [ 0.214983996568467, 45.727431725332941 ], [ 0.215213264203906, 45.727414521885166 ], [ 0.21520890159128, 45.727394702575573 ], [ 0.215286076563173, 45.727389923458205 ], [ 0.215285031549643, 45.727378998530341 ], [ 0.215472636221767, 45.727364142275107 ], [ 0.215448460951895, 45.727226697197715 ], [ 0.215263537687554, 45.727246830921651 ], [ 0.215238529467922, 45.727099666235681 ], [ 0.214840200751127, 45.727137479706848 ], [ 0.214904240637846, 45.727422107671273 ] ] ] } },
{ "type": "Feature", "properties": { "fid": 17, "fir": "LFBB", "icao": "LFBU", "type": "building", "author": "DedpewlControl" }, "geometry": { "type": "Polygon", "coordinates": [ [ [ 0.215645348303198, 45.727349338665498 ], [ 0.215610221138481, 45.727159595337284 ], [ 0.215874576654957, 45.72713754856106 ], [ 0.215907764635089, 45.727326234342435 ], [ 0.215645348303198, 45.727349338665498 ] ] ] } },
{ "type": "Feature", "properties": { "fid": 18, "fir": "LFBB", "icao": "LFBU", "type": "building", "author": "DedpewlControl" }, "geometry": { "type": "Polygon", "coordinates": [ [ [ 0.216027602773238, 45.727309843518107 ], [ 0.216101217471617, 45.72730475763678 ], [ 0.216100974797198, 45.727313345280955 ], [ 0.216558116348241, 45.72727599817793 ], [ 0.216556737933731, 45.727268161393923 ], [ 0.216615247977647, 45.727261922499167 ], [ 0.21655252412284, 45.726855476485419 ], [ 0.215953758665023, 45.726904962928984 ], [ 0.216027602773238, 45.727309843518107 ] ] ] } },
{ "type": "Feature", "properties": { "fid": 19, "fir": "LFBB", "icao": "LFBU", "type": "building", "author": "DedpewlControl" }, "geometry": { "type": "Polygon", "coordinates": [ [ [ 0.216760751358972, 45.727217019329359 ], [ 0.216748875787807, 45.727149502313672 ], [ 0.2167963716102, 45.727145431305779 ], [ 0.216789282779202, 45.72710014495118 ], [ 0.216926058724513, 45.727085361868546 ], [ 0.216911304987118, 45.727006464897698 ], [ 0.217283636165136, 45.726965372380732 ], [ 0.217338819766901, 45.727229275192244 ], [ 0.216821986515879, 45.727271126750296 ], [ 0.216806944188093, 45.727215507683503 ], [ 0.216760751358972, 45.727217019329359 ] ] ] } },
{ "type": "Feature", "properties": { "fid": 20, "fir": "LFBB", "icao": "LFBU", "type": "building", "author": "DedpewlControl" }, "geometry": { "type": "Polygon", "coordinates": [ [ [ 0.216670765150414, 45.727039320738072 ], [ 0.216649316098915, 45.726927341901359 ], [ 0.216744307743702, 45.72691919985288 ], [ 0.216764787202909, 45.727030649892264 ], [ 0.216670765150414, 45.727039320738072 ] ] ] } },
{ "type": "Feature", "properties": { "fid": 21, "fir": "LFBB", "icao": "LFBU", "type": "building", "author": "DedpewlControl" }, "geometry": { "type": "Polygon", "coordinates": [ [ [ 0.217531930529417, 45.727006506210337 ], [ 0.217476280200284, 45.726650241807342 ], [ 0.217721894511062, 45.726631545280597 ], [ 0.217729264386683, 45.726678726178207 ], [ 0.218005268264725, 45.726657716362674 ], [ 0.218017687147703, 45.726737220228443 ], [ 0.218038284977106, 45.726735652293705 ], [ 0.218048253202232, 45.726799467327474 ], [ 0.218136027043994, 45.726792785870607 ], [ 0.218130620635706, 45.726758174886783 ], [ 0.21834615027166, 45.726741768482235 ], [ 0.218354509233582, 45.726795281261253 ], [ 0.218431693926503, 45.726789405863514 ], [ 0.218420249424568, 45.726716139914792 ], [ 0.218686895450155, 45.726695842446233 ], [ 0.218698396854926, 45.726769472704738 ], [ 0.218786381776069, 45.726762775176638 ], [ 0.218771154834276, 45.726665294559602 ], [ 0.218828111086743, 45.726660958966647 ], [ 0.218831049574503, 45.726679770743033 ], [ 0.218878126139342, 45.726676187207261 ], [ 0.218873334153759, 45.726645509598917 ], [ 0.219050763961794, 45.726632003377418 ], [ 0.219065788227199, 45.726728186548897 ], [ 0.218899909151846, 45.726740813489755 ], [ 0.218918827105335, 45.726861923225577 ], [ 0.218791540376446, 45.726871612441577 ], [ 0.218779653439026, 45.726795514198621 ], [ 0.218705482490567, 45.726801160185659 ], [ 0.218718412859664, 45.726883938295479 ], [ 0.218640489388898, 45.72688986991988 ], [ 0.218643066639581, 45.726906369041153 ], [ 0.218555181394791, 45.726913058964556 ], [ 0.21855210288771, 45.726893350886726 ], [ 0.218458231197199, 45.726900496506708 ], [ 0.218447445233653, 45.72683144655975 ], [ 0.218359601032083, 45.726838133367863 ], [ 0.218368580810272, 45.726895620415242 ], [ 0.218156956142829, 45.726911729523991 ], [ 0.218145197076933, 45.726836449948408 ], [ 0.218060648059008, 45.726842885922537 ], [ 0.218078489973574, 45.726957106826283 ], [ 0.217531930529417, 45.727006506210337 ] ] ] } },
{ "type": "Feature", "properties": { "fid": 22, "fir": "LFBB", "icao": "LFBU", "type": "building", "author": "DedpewlControl" }, "geometry": { "type": "Polygon", "coordinates": [ [ [ 0.219131161414585, 45.726619766040379 ], [ 0.21910884880268, 45.726507860381787 ], [ 0.219325200328704, 45.7264868384094 ], [ 0.219335527769967, 45.726538634235816 ], [ 0.219430765244778, 45.726529380415002 ], [ 0.21941500617679, 45.726450342997794 ], [ 0.220014920274645, 45.726392051775989 ], [ 0.2200350006582, 45.726492762236916 ], [ 0.22063863920421, 45.726434109169922 ], [ 0.220691574352685, 45.726699597690654 ], [ 0.219960066741281, 45.726757383679534 ], [ 0.219951752406014, 45.726706093305715 ], [ 0.219767725870951, 45.726720630622921 ], [ 0.21977603675587, 45.726771899698541 ], [ 0.219238100166129, 45.72681439435113 ], [ 0.219205227494618, 45.726611605779134 ], [ 0.219131161414585, 45.726619766040379 ] ] ] } }
]
}
