{
"type": "FeatureCollection",
"name": "LFBB_LFBU_FREETEXT",
"crs": { "type": "name", "properties": { "name": "urn:ogc:def:crs:OGC:1.3:CRS84" } },
"features": [
{ "type": "Feature", "properties": { "fid": 1, "fir": "LFBB", "icao": "LFBU", "type": "taxiway", "freetext": "G", "author": "DedpewlControl" }, "geometry": { "type": "Point", "coordinates": [ 0.216897606732557, 45.728254787520825 ] } },
{ "type": "Feature", "properties": { "fid": 2, "fir": "LFBB", "icao": "LFBU", "type": "taxiway", "freetext": "E", "author": "DedpewlControl" }, "geometry": { "type": "Point", "coordinates": [ 0.221024274064132, 45.72790108450878 ] } },
{ "type": "Feature", "properties": { "fid": 3, "fir": "LFBB", "icao": "LFBU", "type": "taxiway", "freetext": "F", "author": "DedpewlControl" }, "geometry": { "type": "Point", "coordinates": [ 0.216768780797787, 45.727486934378987 ] } },
{ "type": "Feature", "properties": { "fid": 4, "fir": "LFBB", "icao": "LFBU", "type": "taxiway", "freetext": "F", "author": "DedpewlControl" }, "geometry": { "type": "Point", "coordinates": [ 0.219455669548773, 45.72766566578165 ] } },
{ "type": "Feature", "properties": { "fid": 5, "fir": "LFBB", "icao": "LFBU", "type": "taxiway", "freetext": "F", "author": "DedpewlControl" }, "geometry": { "type": "Point", "coordinates": [ 0.214952038051459, 45.728073437258473 ] } },
{ "type": "Feature", "properties": { "fid": 6, "fir": "LFBB", "icao": "LFBU", "type": "ihp", "freetext": "G1", "author": "DedpewlControl" }, "geometry": { "type": "Point", "coordinates": [ 0.218487548910642, 45.728292565110834 ] } },
{ "type": "Feature", "properties": { "fid": 7, "fir": "LFBB", "icao": "LFBU", "type": "ihp", "freetext": "E1", "author": "DedpewlControl" }, "geometry": { "type": "Point", "coordinates": [ 0.219519215743535, 45.728204139627607 ] } },
{ "type": "Feature", "properties": { "fid": 8, "fir": "LFBB", "icao": "LFBU", "type": "cati", "freetext": "W", "author": "DedpewlControl" }, "geometry": { "type": "Point", "coordinates": [ 0.215354397113622, 45.728978835399566 ] } },
{ "type": "Feature", "properties": { "fid": 9, "fir": "LFBB", "icao": "LFBU", "type": "cati", "freetext": "M", "author": "DedpewlControl" }, "geometry": { "type": "Point", "coordinates": [ 0.219431937453154, 45.728629347681114 ] } },
{ "type": "Feature", "properties": { "fid": 10, "fir": "LFBB", "icao": "LFBU", "type": "cati", "freetext": "E", "author": "DedpewlControl" }, "geometry": { "type": "Point", "coordinates": [ 0.222724953929042, 45.728355802904048 ] } },
{ "type": "Feature", "properties": { "fid": 11, "fir": "LFBB", "icao": "LFBU", "type": "ihp", "freetext": "WH", "author": "DedpewlControl" }, "geometry": { "type": "Point", "coordinates": [ 0.215309374518242, 45.728651995852353 ] } },
{ "type": "Feature", "properties": { "fid": 12, "fir": "LFBB", "icao": "LFBU", "type": "ihp", "freetext": "F1", "author": "DedpewlControl" }, "geometry": { "type": "Point", "coordinates": [ 0.219947149284423, 45.727801946604089 ] } },
{ "type": "Feature", "properties": { "fid": 13, "fir": "LFBB", "icao": "LFBU", "type": "gate", "freetext": "A1", "author": "DedpewlControl" }, "geometry": { "type": "Point", "coordinates": [ 0.217718303766374, 45.727285884610055 ] } },
{ "type": "Feature", "properties": { "fid": 14, "fir": "LFBB", "icao": "LFBU", "type": "gate", "freetext": "A2", "author": "DedpewlControl" }, "geometry": { "type": "Point", "coordinates": [ 0.217910987293023, 45.727265017755606 ] } },
{ "type": "Feature", "properties": { "fid": 15, "fir": "LFBB", "icao": "LFBU", "type": "gate", "freetext": "A3", "author": "DedpewlControl" }, "geometry": { "type": "Point", "coordinates": [ 0.218100977384929, 45.727246557464099 ] } },
{ "type": "Feature", "properties": { "fid": 16, "fir": "LFBB", "icao": "LFBU", "type": "gate", "freetext": "A4", "author": "DedpewlControl" }, "geometry": { "type": "Point", "coordinates": [ 0.218294414916097, 45.727229977386173 ] } },
{ "type": "Feature", "properties": { "fid": 17, "fir": "LFBB", "icao": "LFBU", "type": "gate", "freetext": "C2", "author": "DedpewlControl" }, "geometry": { "type": "Point", "coordinates": [ 0.218524860948085, 45.727158008128512 ] } },
{ "type": "Feature", "properties": { "fid": 18, "fir": "LFBB", "icao": "LFBU", "type": "gate", "freetext": "C1", "author": "DedpewlControl" }, "geometry": { "type": "Point", "coordinates": [ 0.218962744083511, 45.727255369948324 ] } },
{ "type": "Feature", "properties": { "fid": 19, "fir": "LFBB", "icao": "LFBU", "type": "gate", "freetext": "C3", "author": "DedpewlControl" }, "geometry": { "type": "Point", "coordinates": [ 0.218812351019557, 45.727126839360444 ] } },
{ "type": "Feature", "properties": { "fid": 20, "fir": "LFBB", "icao": "LFBU", "type": "gate", "freetext": "B1", "author": "DedpewlControl" }, "geometry": { "type": "Point", "coordinates": [ 0.220239785572711, 45.726860891940497 ] } },
{ "type": "Feature", "properties": { "fid": 21, "fir": "LFBB", "icao": "LFBU", "type": "gate", "freetext": "B2", "author": "DedpewlControl" }, "geometry": { "type": "Point", "coordinates": [ 0.22025394840177, 45.726994572714347 ] } },
{ "type": "Feature", "properties": { "fid": 22, "fir": "LFBB", "icao": "LFBU", "type": "gate", "freetext": "B3", "author": "DedpewlControl" }, "geometry": { "type": "Point", "coordinates": [ 0.220274629107094, 45.727129870214974 ] } },
{ "type": "Feature", "properties": { "fid": 23, "fir": "LFBB", "icao": "LFBU", "type": "gate", "freetext": "B4", "author": "DedpewlControl" }, "geometry": { "type": "Point", "coordinates": [ 0.220302204690942, 45.727268927824703 ] } },
{ "type": "Feature", "properties": { "fid": 24, "fir": "LFBB", "icao": "LFBU", "type": "gate", "freetext": "B5", "author": "DedpewlControl" }, "geometry": { "type": "Point", "coordinates": [ 0.220328594849082, 45.727418965205722 ] } },
{ "type": "Feature", "properties": { "fid": 25, "fir": "LFBB", "icao": "LFBU", "type": "gate", "freetext": "H6", "author": "DedpewlControl" }, "geometry": { "type": "Point", "coordinates": [ 0.219691090680294, 45.726984072648015 ] } },
{ "type": "Feature", "properties": { "fid": 26, "fir": "LFBB", "icao": "LFBU", "type": "gate", "freetext": "H7", "author": "DedpewlControl" }, "geometry": { "type": "Point", "coordinates": [ 0.219732183926542, 45.727217703300759 ] } },
{ "type": "Feature", "properties": { "fid": 27, "fir": "LFBB", "icao": "LFBU", "type": "gate", "freetext": "H8", "author": "DedpewlControl" }, "geometry": { "type": "Point", "coordinates": [ 0.219771015159235, 45.727438472652643 ] } },
{ "type": "Feature", "properties": { "fid": 28, "fir": "LFBB", "icao": "LFBU", "type": "misc", "freetext": "Heli Union", "author": "DedpewlControl" }, "geometry": { "type": "Point", "coordinates": [ 0.219457640420975, 45.72666684506865 ] } },
{ "type": "Feature", "properties": { "fid": 29, "fir": "LFBB", "icao": "LFBU", "type": "misc", "freetext": "Terminal", "author": "DedpewlControl" }, "geometry": { "type": "Point", "coordinates": [ 0.218562417568447, 45.726804498245905 ] } },
{ "type": "Feature", "properties": { "fid": 30, "fir": "LFBB", "icao": "LFBU", "type": "misc", "freetext": "ACB", "author": "DedpewlControl" }, "geometry": { "type": "Point", "coordinates": [ 0.217772293089845, 45.726830883774738 ] } },
{ "type": "Feature", "properties": { "fid": 31, "fir": "LFBB", "icao": "LFBU", "type": "gate", "freetext": "AIRBUS", "author": "DedpewlControl" }, "geometry": { "type": "Point", "coordinates": [ 0.217082999331719, 45.727129294477251 ] } },
{ "type": "Feature", "properties": { "fid": 32, "fir": "LFBB", "icao": "LFBU", "type": "misc", "freetext": "AIRBUS", "author": "DedpewlControl" }, "geometry": { "type": "Point", "coordinates": [ 0.216283504215568, 45.72708468448473 ] } },
{ "type": "Feature", "properties": { "fid": 33, "fir": "LFBB", "icao": "LFBU", "type": "misc", "freetext": "AVT", "author": "DedpewlControl" }, "geometry": { "type": "Point", "coordinates": [ 0.214506607312623, 45.727321840149266 ] } }
]
}
