{
"type": "FeatureCollection",
"name": "LFBB_LFBU_GEO",
"crs": { "type": "name", "properties": { "name": "urn:ogc:def:crs:OGC:1.3:CRS84" } },
"features": [
{ "type": "Feature", "properties": { "fid": 1, "fir": "LFBB", "icao": "LFBU", "type": "gate_centerline", "author": "DedpewlControl" }, "geometry": { "type": "LineString", "coordinates": [ [ 0.217733875271024, 45.727375521622527 ], [ 0.217701372430905, 45.727186301345519 ] ] } },
{ "type": "Feature", "properties": { "fid": 2, "fir": "LFBB", "icao": "LFBU", "type": "gate_centerline", "author": "DedpewlControl" }, "geometry": { "type": "LineString", "coordinates": [ [ 0.217925494831996, 45.727357465627577 ], [ 0.217892991991877, 45.727168245350569 ] ] } },
{ "type": "Feature", "properties": { "fid": 3, "fir": "LFBB", "icao": "LFBU", "type": "gate_centerline", "author": "DedpewlControl" }, "geometry": { "type": "LineString", "coordinates": [ [ 0.218117862368028, 45.727339339146305 ], [ 0.218085359527909, 45.727150118869297 ] ] } },
{ "type": "Feature", "properties": { "fid": 4, "fir": "LFBB", "icao": "LFBU", "type": "gate_centerline", "author": "DedpewlControl" }, "geometry": { "type": "LineString", "coordinates": [ [ 0.218308743150358, 45.727321352753606 ], [ 0.218276240310239, 45.727132132476598 ] ] } },
{ "type": "Feature", "properties": { "fid": 5, "fir": "LFBB", "icao": "LFBU", "type": "gate_centerline", "author": "DedpewlControl" }, "geometry": { "type": "LineString", "coordinates": [ [ 0.218426221439892, 45.727220719601398 ], [ 0.218655161427967, 45.727078168714264 ] ] } },
{ "type": "Feature", "properties": { "fid": 6, "fir": "LFBB", "icao": "LFBU", "type": "gate_centerline", "author": "DedpewlControl" }, "geometry": { "type": "LineString", "coordinates": [ [ 0.219167815569553, 45.727069038997151 ], [ 0.218930012098142, 45.727285235864692 ] ] } },
{ "type": "Feature", "properties": { "fid": 7, "fir": "LFBB", "icao": "LFBU", "type": "gate_centerline", "author": "DedpewlControl" }, "geometry": { "type": "LineString", "coordinates": [ [ 0.218722508936165, 45.727075659725294 ], [ 0.218790501611021, 45.727112258303656 ] ] } },
{ "type": "Feature", "properties": { "fid": 8, "fir": "LFBB", "icao": "LFBU", "type": "gate_centerline", "author": "DedpewlControl" }, "geometry": { "type": "LineString", "coordinates": [ [ 0.218837008823151, 45.727140761326787 ], [ 0.218905001498007, 45.727177359905149 ] ] } },
{ "type": "Feature", "properties": { "fid": 9, "fir": "LFBB", "icao": "LFBU", "type": "gate_centerline", "author": "DedpewlControl" }, "geometry": { "type": "LineString", "coordinates": [ [ 0.218936607559485, 45.72719314434385 ], [ 0.219004600234341, 45.727229742922212 ] ] } },
{ "type": "Feature", "properties": { "fid": 10, "fir": "LFBB", "icao": "LFBU", "type": "gate_centerline", "author": "DedpewlControl" }, "geometry": { "type": "LineString", "coordinates": [ [ 0.21905861465102, 45.727257748730963 ], [ 0.219126607325876, 45.727294347309325 ] ] } },
{ "type": "Feature", "properties": { "fid": 11, "fir": "LFBB", "icao": "LFBU", "type": "gate_centerline", "author": "DedpewlControl" }, "geometry": { "type": "LineString", "coordinates": [ [ 0.219168070847582, 45.727317445624628 ], [ 0.219236063522438, 45.72735404420299 ] ] } },
{ "type": "Feature", "properties": { "fid": 12, "fir": "LFBB", "icao": "LFBU", "type": "gate_centerline", "author": "DedpewlControl" }, "geometry": { "type": "LineString", "coordinates": [ [ 0.219652688922609, 45.72744684693474 ], [ 0.219912140849334, 45.727424608654871 ] ] } },
{ "type": "Feature", "properties": { "fid": 13, "fir": "LFBB", "icao": "LFBU", "type": "gate_centerline", "author": "DedpewlControl" }, "geometry": { "type": "LineString", "coordinates": [ [ 0.219607716815911, 45.727226603967736 ], [ 0.219867168742636, 45.727204365687868 ] ] } },
{ "type": "Feature", "properties": { "fid": 14, "fir": "LFBB", "icao": "LFBU", "type": "gate_centerline", "author": "DedpewlControl" }, "geometry": { "type": "LineString", "coordinates": [ [ 0.219565088351162, 45.726993104940718 ], [ 0.219824540277887, 45.726970866660849 ] ] } },
{ "type": "Feature", "properties": { "fid": 15, "fir": "LFBB", "icao": "LFBU", "type": "gate_centerline", "author": "DedpewlControl" }, "geometry": { "type": "LineString", "coordinates": [ [ 0.220118577400212, 45.726870601191429 ], [ 0.220378029326937, 45.726848362911561 ] ] } },
{ "type": "Feature", "properties": { "fid": 16, "fir": "LFBB", "icao": "LFBU", "type": "gate_centerline", "author": "DedpewlControl" }, "geometry": { "type": "LineString", "coordinates": [ [ 0.22014195154028, 45.727003492411207 ], [ 0.22037395803511, 45.726984694250717 ] ] } },
{ "type": "Feature", "properties": { "fid": 17, "fir": "LFBB", "icao": "LFBU", "type": "gate_centerline", "author": "DedpewlControl" }, "geometry": { "type": "LineString", "coordinates": [ [ 0.220165702682606, 45.727138526713915 ], [ 0.220397709177437, 45.727119728553426 ] ] } },
{ "type": "Feature", "properties": { "fid": 18, "fir": "LFBB", "icao": "LFBU", "type": "gate_centerline", "author": "DedpewlControl" }, "geometry": { "type": "LineString", "coordinates": [ [ 0.220193655268713, 45.727279727695759 ], [ 0.220425661763543, 45.727260929535269 ] ] } },
{ "type": "Feature", "properties": { "fid": 19, "fir": "LFBB", "icao": "LFBU", "type": "gate_centerline", "author": "DedpewlControl" }, "geometry": { "type": "LineString", "coordinates": [ [ 0.220221203643096, 45.727427490072394 ], [ 0.220453210137926, 45.727408691911904 ] ] } },
{ "type": "Feature", "properties": { "fid": 20, "fir": "LFBB", "icao": "LFBU", "type": "ihp", "author": "DedpewlControl" }, "geometry": { "type": "LineString", "coordinates": [ [ 0.21992182416969, 45.727694788885074 ], [ 0.219891259777227, 45.727529880145937 ] ] } },
{ "type": "Feature", "properties": { "fid": 21, "fir": "LFBB", "icao": "LFBU", "type": "ihp", "author": "DedpewlControl" }, "geometry": { "type": "LineString", "coordinates": [ [ 0.218473285968744, 45.728154999476253 ], [ 0.218458715471866, 45.728071060841188 ] ] } },
{ "type": "Feature", "properties": { "fid": 22, "fir": "LFBB", "icao": "LFBU", "type": "ihp", "author": "DedpewlControl" }, "geometry": { "type": "LineString", "coordinates": [ [ 0.21949479241403, 45.728069690885526 ], [ 0.219481963386887, 45.727992351733064 ] ] } },
{ "type": "Feature", "properties": { "fid": 23, "fir": "LFBB", "icao": "LFBU", "type": "ihp", "author": "DedpewlControl" }, "geometry": { "type": "LineString", "coordinates": [ [ 0.215007500456761, 45.728682629178813 ], [ 0.215111043222701, 45.728674027030472 ] ] } }
]
}
